LON,LAT,NUMBER,STREET,UNIT,CITY,DISTRICT,REGION,POSTCODE,ID
-115.5715627,51.1745329,101,Banff Avenue,,,,,,
-115.5715493,51.1746867,103,Banff Avenue,,,,,,
-115.5715311,51.1748953,107,Banff Avenue,,,,,,
-115.5715124,51.1751109,111,Banff Avenue,,,,,,
-115.5714982,51.1752752,115,Banff Avenue,,,,,,
-115.5714887,51.1753848,117,Banff Avenue,,,,,,
-115.5714793,51.1754943,119,Banff Avenue,,,,,,
-115.5714698,51.1756039,121,Banff Avenue,,,,,,
-115.5714604,51.1757134,123,Banff Avenue,,,,,,
-115.5714509,51.175823,125,Banff Avenue,,,,,,
-115.5714414,51.1759326,127,Banff Avenue,,,,,,
-115.571432,51.1760421,129,Banff Avenue,,,,,,
-115.5714225,51.1761517,131,Banff Avenue,,,,,,
-115.5714131,51.1762612,133,Banff Avenue,,,,,,
-115.5713989,51.1764255,137,Banff Avenue,,,,,,
-115.5720468,51.1765021,138,Bear Street,,,,,,
-115.5705254,51.1749019,108,Banff Avenue,,,,,,
-115.5705097,51.1750844,112,Banff Avenue,,,,,,
-115.5705038,51.1751528,114,Banff Avenue,,,,,,
-115.5704963,51.1752404,116,Banff Avenue,,,,,,
-115.5704823,51.1754048,120,Banff Avenue,,,,,,
-115.5704634,51.175624,124,Banff Avenue,,,,,,
-115.5704213,51.1761174,138,Banff Avenue,,,,,,
-115.5697906,51.1758206,125,Beaver Street,,,,,,
-115.569806,51.1756565,123,Beaver Street,,,,,,
-115.5698162,51.1755469,121,Beaver Street,,,,,,
-115.5698259,51.1754373,119,Beaver Street,,,,,,
-115.5698535,51.1751091,113,Beaver Street,,,,,,
-115.5698726,51.1748895,109,Beaver Street,,,,,,
-115.5687436,51.1745626,406,Buffalo Street,,,,,,
-115.5690284,51.175081,114,Beaver Street,,,,,,
-115.5690173,51.1751902,116,Beaver Street,,,,,,
-115.5690094,51.1752997,118,Beaver Street,,,,,,
-115.5689985,51.1754093,120,Beaver Street,,,,,,
-115.5689885,51.1755189,122,Beaver Street,,,,,,
-115.5689606,51.1758476,128,Beaver Street,,,,,,
-115.5689511,51.1759571,130,Beaver Street,,,,,,
-115.5682575,51.1763727,137,Muskrat Street,,,,,,
-115.5682696,51.1762631,135,Muskrat Street,,,,,,
-115.5682777,51.1761534,133,Muskrat Street,,,,,,
-115.5682875,51.176044,131,Muskrat Street,,,,,,
-115.5682975,51.1759348,129,Muskrat Street,,,,,,
-115.5683075,51.1758254,127,Muskrat Street,,,,,,
-115.5683654,51.1751681,115,Muskrat Street,,,,,,
-115.5683744,51.1750587,113,Muskrat Street,,,,,,
-115.5683834,51.1749488,111,Muskrat Street,,,,,,
-115.568393,51.1748392,109,Muskrat Street,,,,,,
-115.5667443,51.174493,514,Buffalo Street,,,,,,
-115.5671781,51.1745082,510,Buffalo Street,,,,,,
-115.5676121,51.1745233,504,Buffalo Street,,,,,,
-115.5675653,51.1748101,110,Muskrat Street,,,,,,
-115.5675562,51.1749199,112,Muskrat Street,,,,,,
-115.567529,51.1752481,118,Muskrat Street,,,,,,
-115.5675203,51.175358,120,Muskrat Street,,,,,,
-115.5675091,51.1754679,122,Muskrat Street,,,,,,
-115.5675,51.1755777,124,Muskrat Street,,,,,,
-115.5674908,51.1756878,126,Muskrat Street,,,,,,
-115.5674669,51.1759616,130,Muskrat Street,,,,,,
-115.5674531,51.1761258,134,Muskrat Street,,,,,,
-115.5674444,51.1762355,136,Muskrat Street,,,,,,
-115.5674352,51.1763452,138,Muskrat Street,,,,,,
-115.5667806,51.1763226,137,Otter Street,,,,,,
-115.5667996,51.1761035,133,Otter Street,,,,,,
-115.5668239,51.1758297,127,Otter Street,,,,,,
-115.5668381,51.1756654,125,Otter Street,,,,,,
-115.5668481,51.1755557,123,Otter Street,,,,,,
-115.5668577,51.175446,121,Otter Street,,,,,,
-115.5668666,51.1753362,119,Otter Street,,,,,,
-115.5668767,51.1752265,117,Otter Street,,,,,,
-115.5668862,51.1751173,115,Otter Street,,,,,,
-115.5668958,51.1750077,113,Otter Street,,,,,,
-115.5669054,51.1748977,111,Otter Street,,,,,,
-115.5669149,51.1747878,109,Otter Street,,,,,,
-115.5728479,51.1768046,201,Bear Street,,,,,,
-115.5728382,51.1769146,203,Bear Street,,,,,,
-115.5727712,51.1776814,217,Bear Street,,,,,,
-115.5727618,51.177791,219,Bear Street,,,,,,
-115.5727433,51.1780099,223,Bear Street,,,,,,
-115.5727339,51.1781194,225,Bear Street,,,,,,
-115.5727198,51.1782836,229,Bear Street,,,,,,
-115.5735961,51.178314,230,Lynx Street,,,,,,
-115.5734646,51.1776012,218,Lynx Street,,,,,,
-115.5713614,51.176864,201,Banff Avenue,,,,,,
-115.5713433,51.1770834,207,Banff Avenue,,,,,,
-115.5713339,51.177193,209,Banff Avenue,,,,,,
-115.5713242,51.1773025,211,Banff Avenue,,,,,,
-115.5713049,51.1775217,215,Banff Avenue,,,,,,
-115.5712854,51.1777411,219,Banff Avenue,,,,,,
-115.571276,51.1778509,221,Banff Avenue,,,,,,
-115.5712619,51.1780153,225,Banff Avenue,,,,,,
-115.5712474,51.1781798,227,Banff Avenue,,,,,,
-115.5712376,51.1782897,229,Banff Avenue,,,,,,
-115.5718997,51.1782019,226,Bear Street,,,,,,
-115.5719285,51.1778727,220,Bear Street,,,,,,
-115.571986,51.1772149,210,Bear Street,,,,,,
-115.5719979,51.1770838,208,Bear Street,,,,,,
-115.5774739,51.1791223,0,,,,,,,
-115.5776555,51.1677906,0,,,,,,,
-115.5781409,51.1676855,0,,,,,,,
-115.5766957,51.16682,0,,,,,,,
-115.563457,51.1767772,0,,,,,,,
-115.5672113,51.1735794,0,,,,,,,
-115.5591599,51.1858926,0,,,,,,,
-115.5726554,51.1824701,0,,,,,,,
-115.5816678,51.1743416,0,,,,,,,
-115.5753298,51.1692799,0,,,,,,,
-115.5758371,51.1692406,0,,,,,,,
-115.5790496,51.167581,0,,,,,,,
-115.5797439,51.1673873,0,,,,,,,
-115.5812505,51.1673168,0,,,,,,,
-115.5804593,51.1678143,0,,,,,,,
-115.5814003,51.1680418,0,,,,,,,
-115.5796233,51.1698549,0,,,,,,,
-115.5657916,51.1678409,0,,,,,,,
-115.5770423,51.1676187,0,,,,,,,
-115.5740355,51.1672966,0,,,,,,,
-115.5850249,51.1675183,0,,,,,,,
-115.5644946,51.1642269,0,,,,,,,
-115.5642203,51.1643964,0,,,,,,,
-115.570219,51.167166,0,,,,,,,
-115.5706609,51.1666,0,,,,,,,
-115.571895,51.1671659,0,,,,,,,
-115.5563865,51.1904245,0,,,,,,,
-115.5564775,51.1896077,0,,,,,,,
-115.5611646,51.163046,0,,,,,,,
-115.5611086,51.163144,0,,,,,,,
-115.5623051,51.1882625,0,,,,,,,
-115.5788633,51.1808917,0,,,,,,,
-115.5774949,51.1809788,0,,,,,,,
-115.5769247,51.1808854,0,,,,,,,
-115.5754085,51.1812947,0,,,,,,,
-115.5724617,51.1823042,0,,,,,,,
-115.5484869,51.1859277,0,,,,,,,
-115.5545993,51.1846489,0,,,,,,,
-115.5542766,51.184015,0,,,,,,,
-115.5543472,51.1843467,20,Antelope Lane,,,,,,
-115.5547421,51.1845982,0,,,,,,,
-115.5549127,51.1845977,0,,,,,,,
-115.5567318,51.1839668,0,,,,,,,
-115.5584247,51.1836753,0,,,,,,,
-115.5592112,51.1852765,0,,,,,,,
-115.5591909,51.1854936,0,,,,,,,
-115.5599609,51.1860161,0,,,,,,,
-115.5593225,51.1865372,0,,,,,,,
-115.5587939,51.1872919,0,,,,,,,
-115.5582024,51.1877117,0,,,,,,,
-115.565055,51.1826121,0,,,,,,,
-115.5688089,51.1711445,0,,,,,,,
-115.5819154,51.1684215,0,,,,,,,
-115.5675472,51.1750293,0,,,,,,,
-115.5675381,51.1751387,0,,,,,,,
-115.5720156,51.1768644,208,Caribou Street,,,,,,
-115.570365,51.1767751,202,Banff Avenue,,,,,,
-115.5703352,51.1771041,212,Banff Avenue,,,,,,
-115.5703125,51.1773781,214,Banff Avenue,,,,,,
-115.5703034,51.1774882,216,Banff Avenue,,,,,,
-115.569591,51.1781221,227,Beaver Street,,,,,,
-115.5696058,51.177958,223,Beaver Street,,,,,,
-115.5696208,51.1777938,221,Beaver Street,,,,,,
-115.5688893,51.1766691,202,Beaver Street,,,,,,
-115.5688756,51.1768338,206,Beaver Street,,,,,,
-115.5688614,51.1769985,208,Beaver Street,,,,,,
-115.5688283,51.1773823,214,Beaver Street,,,,,,
-115.5688146,51.1775469,218,Beaver Street,,,,,,
-115.5688049,51.1776568,220,Beaver Street,,,,,,
-115.5687952,51.1777658,222,Beaver Street,,,,,,
-115.5687842,51.1778756,224,Beaver Street,,,,,,
-115.5687758,51.1779862,226,Beaver Street,,,,,,
-115.5687669,51.1780958,228,Beaver Street,,,,,,
-115.5687589,51.1782051,403,Wolf Street,,,,,,
-115.5681692,51.1774149,215,Muskrat Street,,,,,,
-115.568188,51.1771963,211,Muskrat Street,,,,,,
-115.5682001,51.1770867,209,Muskrat Street,,,,,,
-115.5682064,51.176976,207,Muskrat Street,,,,,,
-115.5675234,51.1766778,202,Muskrat Street,,,,,,
-115.5672409,51.1766682,530,Caribou Street,,,,,,
-115.5673906,51.1768383,206,Muskrat Street,,,,,,
-115.5673813,51.1769482,208,Muskrat Street,,,,,,
-115.5673621,51.1771675,212,Muskrat Street,,,,,,
-115.5673524,51.1772773,214,Muskrat Street,,,,,,
-115.5673384,51.177442,216,Muskrat Street,,,,,,
-115.5673243,51.1776068,220,Muskrat Street,,,,,,
-115.5673046,51.1778264,224,Muskrat Street,,,,,,
-115.5672952,51.1779361,226,Muskrat Street,,,,,,
-115.5672856,51.1780454,228,Muskrat Street,,,,,,
-115.5672762,51.1781543,230,Muskrat Street,,,,,,
-115.5666239,51.1781329,509,Wolf Street,,,,,,
-115.5666331,51.1780237,227,Otter Street,,,,,,
-115.5666429,51.1779138,225,Otter Street,,,,,,
-115.5666522,51.1778039,223,Otter Street,,,,,,
-115.5666615,51.1776942,221,Otter Street,,,,,,
-115.5666709,51.1775845,219,Otter Street,,,,,,
-115.5666786,51.1774743,217,Otter Street,,,,,,
-115.5666894,51.1773645,215,Otter Street,,,,,,
-115.5666996,51.1772549,213,Otter Street,,,,,,
-115.5667085,51.1771449,211,Otter Street,,,,,,
-115.5667177,51.1770353,209,Otter Street,,,,,,
-115.5667268,51.176925,207,Otter Street,,,,,,
-115.5667466,51.1767055,203,Otter Street,,,,,,
-115.5667565,51.1765962,201,Otter Street,,,,,,
-115.5733702,51.1787012,303,Marten Street,,,,,,
-115.5731764,51.1788279,305,Marten Street,,,,,,
-115.5730601,51.1789437,307,Marten Street,,,,,,
-115.572945,51.1790599,309,Marten Street,,,,,,
-115.5728286,51.1791754,311,Marten Street,,,,,,
-115.572713,51.1792916,313,Marten Street,,,,,,
-115.5723653,51.1796389,321,Marten Street,,,,,,
-115.5722495,51.1797548,323,Marten Street,,,,,,
-115.5721355,51.1798704,325,Marten Street,,,,,,
-115.5729956,51.1797269,318,Squirrel Street,,,,,,
-115.5731115,51.1796109,316,Squirrel Street,,,,,,
-115.5732274,51.1794951,314,Squirrel Street,,,,,,
-115.5733432,51.1793791,312,Squirrel Street,,,,,,
-115.5734591,51.1792632,310,Squirrel Street,,,,,,
-115.573575,51.1791473,308,Squirrel Street,,,,,,
-115.5736907,51.1790314,306,Squirrel Street,,,,,,
-115.5738065,51.1789158,304,Squirrel Street,,,,,,
-115.5739525,51.1787453,302,Squirrel Street,,,,,,
-115.5714487,51.1787773,317,Banff Avenue,,,,,,
-115.5711521,51.1790723,321,Banff Avenue,,,,,,
-115.5714082,51.1794299,318,Marten Street,,,,,,
-115.5719752,51.178999,316,Marten Street,,,,,,
-115.5724786,51.1787061,202,Wolf Street,,,,,,
-115.5721111,51.1786735,204,Wolf Street,,,,,,
-115.5718752,51.180126,327,Marten Street,,,,,,
-115.5716443,51.1803583,331,Marten Street,,,,,,
-115.5715284,51.1804737,333,Marten Street,,,,,,
-115.5714123,51.1805898,335,Marten Street,,,,,,
-115.5712973,51.1807065,337,Marten Street,,,,,,
-115.571181,51.1808222,339,Marten Street,,,,,,
-115.5710657,51.180938,341,Marten Street,,,,,,
-115.5711134,51.1816054,348,Squirrel Street,,,,,,
-115.5712302,51.1814896,346,Squirrel Street,,,,,,
-115.5713463,51.1813739,344,Squirrel Street,,,,,,
-115.5714623,51.1812583,342,Squirrel Street,,,,,,
-115.5715783,51.1811428,340,Squirrel Street,,,,,,
-115.5716936,51.181027,338,Squirrel Street,,,,,,
-115.5718089,51.180911,336,Squirrel Street,,,,,,
-115.5719252,51.1807948,334,Squirrel Street,,,,,,
-115.5720401,51.1806785,332,Squirrel Street,,,,,,
-115.5721562,51.1805634,330,Squirrel Street,,,,,,
-115.5722725,51.1804479,328,Squirrel Street,,,,,,
-115.5723898,51.1803322,326,Squirrel Street,,,,,,
-115.5707098,51.1799075,333,Banff Avenue,,,,,,
-115.5690451,51.1799762,338,Banff Avenue,,,,,,
-115.5688133,51.1802077,342,Banff Avenue,,,,,,
-115.5686967,51.1803234,344,Banff Avenue,,,,,,
-115.5685812,51.1804397,346,Banff Avenue,,,,,,
-115.5684652,51.1805555,348,Banff Avenue,,,,,,
-115.56795,51.180352,349,Beaver Street,,,,,,
-115.5680657,51.1802363,347,Beaver Street,,,,,,
-115.5681824,51.1801205,345,Beaver Street,,,,,,
-115.5682982,51.1800044,343,Beaver Street,,,,,,
-115.5684142,51.1798885,341,Beaver Street,,,,,,
-115.5684306,51.1788423,326,Beaver Street,,,,,,
-115.568258,51.1790154,330,Beaver Street,,,,,,
-115.568142,51.1791311,332,Beaver Street,,,,,,
-115.568026,51.1792468,334,Beaver Street,,,,,,
-115.56791,51.1793628,336,Beaver Street,,,,,,
-115.5677941,51.1794788,338,Beaver Street,,,,,,
-115.5676772,51.1795943,340,Beaver Street,,,,,,
-115.5675609,51.1797104,342,Beaver Street,,,,,,
-115.5674455,51.179827,344,Beaver Street,,,,,,
-115.5672705,51.1800011,348,Beaver Street,,,,,,
-115.5666963,51.1798552,349,Muskrat Street,,,,,,
-115.566813,51.1797393,347,Muskrat Street,,,,,,
-115.5669297,51.1796233,345,Muskrat Street,,,,,,
-115.5670462,51.1795072,343,Muskrat Street,,,,,,
-115.5671633,51.1793912,341,Muskrat Street,,,,,,
-115.5672793,51.1792748,339,Muskrat Street,,,,,,
-115.5673952,51.1791589,337,Muskrat Street,,,,,,
-115.5675112,51.179043,335,Muskrat Street,,,,,,
-115.5676271,51.1789271,333,Muskrat Street,,,,,,
-115.5677431,51.1788107,331,Muskrat Street,,,,,,
-115.5680453,51.1786894,448,Elk Street,,,,,,
-115.5677871,51.1785862,446,Elk Street,,,,,,
-115.5670986,51.1785004,328,Muskrat Street,,,,,,
-115.5668931,51.1786361,332,Muskrat Street,,,,,,
-115.5667765,51.1787521,334,Muskrat Street,,,,,,
-115.5666607,51.1788686,336,Muskrat Street,,,,,,
-115.5665447,51.1789848,338,Muskrat Street,,,,,,
-115.5664285,51.1791009,340,Muskrat Street,,,,,,
-115.5663121,51.1792169,342,Muskrat Street,,,,,,
-115.5661957,51.1793329,344,Muskrat Street,,,,,,
-115.5660792,51.179449,346,Muskrat Street,,,,,,
-115.5659627,51.1795651,348,Muskrat Street,,,,,,
-115.5656806,51.1791296,345,Otter Street,,,,,,
-115.5657978,51.1790138,343,Otter Street,,,,,,
-115.5659141,51.178898,341,Otter Street,,,,,,
-115.5660306,51.1787821,339,Otter Street,,,,,,
-115.5661469,51.1786663,337,Otter Street,,,,,,
-115.5662639,51.1785508,335,Otter Street,,,,,,
-115.5664376,51.1784419,510,Wolf Street,,,,,,
-115.568872,51.1813836,401,Banff Avenue,,,,,,
-115.5690362,51.1820541,412,Marten Street,,,,,,
-115.5691454,51.1818319,410,Marten Street,,,,,,
-115.5695837,51.1782324,0,,,,,,,
-115.5673148,51.1777167,0,,,,,,,
-115.572543,51.1793173,0,,,,,,,
-115.5708968,51.1809696,0,,,,,,,
-115.5707201,51.1812235,0,,,,,,,
-115.5706041,51.1813348,0,,,,,,,
-115.5692621,51.1817155,408,Marten Street,,,,,,
-115.5701158,51.1818899,405,Marten Street,,,,,,
-115.5694662,51.1826349,417,Marten Street,,,,,,
-115.5705112,51.1822096,408,Squirrel Street,,,,,,
-115.5708576,51.1818608,402,Squirrel Street,,,,,,
-115.5690088,51.1827099,419,Marten Street,,,,,,
-115.5688112,51.1827803,421,Marten Street,,,,,,
-115.5685992,51.1828469,423,Marten Street,,,,,,
-115.5681689,51.1829508,427,Marten Street,,,,,,
-115.5679385,51.1829618,429,Marten Street,,,,,,
-115.5677076,51.1829908,431,Marten Street,,,,,,
-115.5674818,51.1830151,433,Marten Street,,,,,,
-115.5672548,51.1828835,435,Marten Street,,,,,,
-115.567024,51.183056,437,Marten Street,,,,,,
-115.5667966,51.1830729,439,Marten Street,,,,,,
-115.5663415,51.1830678,441,Marten Street,,,,,,
-115.5655163,51.1830141,453,Marten Street,,,,,,
-115.5647474,51.1829381,449,Banff Avenue,,,,,,
-115.5643882,51.1830182,451,Banff Avenue,,,,,,
-115.5640097,51.1832458,459,Banff Avenue,,,,,,
-115.5632055,51.1835091,461,Banff Avenue,,,,,,
-115.5647181,51.1832918,448,Cougar Street,,,,,,
-115.5660621,51.1833949,438,Cougar Street,,,,,,
-115.5664573,51.1834387,434,Cougar Street,,,,,,
-115.5666598,51.1834556,432,Cougar Street,,,,,,
-115.5669621,51.1834537,428,Cougar Street,,,,,,
-115.567276,51.1834402,426,Cougar Street,,,,,,
-115.5681668,51.1833827,418,Cougar Street,,,,,,
-115.5688971,51.1835071,412,Cougar Street,,,,,,
-115.569217,51.183673,410,Cougar Street,,,,,,
-115.569424,51.1835305,422,Squirrel Street,,,,,,
-115.5693324,51.1833828,9,Rabbit Street,,,,,,
-115.5692274,51.1832606,7,Rabbit Street,,,,,,
-115.5691211,51.1831383,5,Rabbit Street,,,,,,
-115.5690214,51.1830139,3,Rabbit Street,,,,,,
-115.5678271,51.1818862,419,Banff Avenue,,,,,,
-115.567058,51.1821455,425,Banff Avenue,,,,,,
-115.5664844,51.182421,429,Banff Avenue,,,,,,
-115.5656452,51.1825477,435,Banff Avenue,,,,,,
-115.5669347,51.1825764,430,Marten Street,,,,,,
-115.5661437,51.1825267,433,Banff Avenue,,,,,,
-115.5681305,51.1809378,404,Banff Avenue,,,,,,
-115.5678846,51.1811176,408,Banff Avenue,,,,,,
-115.5677263,51.1811945,410,Banff Avenue,,,,,,
-115.5674795,51.1812859,412,Banff Avenue,,,,,,
-115.5671941,51.1813695,416,Banff Avenue,,,,,,
-115.5670114,51.181445,418,Banff Avenue,,,,,,
-115.5668143,51.1815079,420,Banff Avenue,,,,,,
-115.5666219,51.1815779,422,Banff Avenue,,,,,,
-115.5664276,51.1816408,424,Banff Avenue,,,,,,
-115.5662336,51.1817033,426,Banff Avenue,,,,,,
-115.5660377,51.1817889,430,Banff Avenue,,,,,,
-115.5660797,51.1814271,419,Beaver Street,,,,,,
-115.5666378,51.1812199,413,Beaver Street,,,,,,
-115.5668452,51.1811478,411,Beaver Street,,,,,,
-115.5671681,51.1810103,407,Beaver Street,,,,,,
-115.5674148,51.1808664,405,Beaver Street,,,,,,
-115.5669683,51.1803211,402,Beaver Street,,,,,,
-115.566424,51.1801061,401,Muskrat Street,,,,,,
-115.5668382,51.1804327,404,Beaver Street,,,,,,
-115.5662932,51.1802167,403,Muskrat Street,,,,,,
-115.5666928,51.1805367,406,Beaver Street,,,,,,
-115.5661456,51.1803192,405,Muskrat Street,,,,,,
-115.5665292,51.1806349,408,Beaver Street,,,,,,
-115.5659777,51.1804147,407,Muskrat Street,,,,,,
-115.5663463,51.1807274,410,Beaver Street,,,,,,
-115.5657998,51.180511,409,Muskrat Street,,,,,,
-115.5661673,51.1808213,412,Beaver Street,,,,,,
-115.5656215,51.1805994,411,Muskrat Street,,,,,,
-115.56566,51.1808536,413,Muskrat Street,,,,,,
-115.5653669,51.1810577,417,Muskrat Street,,,,,,
-115.5651995,51.181233,421,Muskrat Street,,,,,,
-115.5650611,51.1814235,425,Muskrat Street,,,,,,
-115.5647662,51.1816591,427,Muskrat Street,,,,,,
-115.5645294,51.1817244,429,Muskrat Street,,,,,,
-115.5643756,51.1818351,431,Muskrat Street,,,,,,
-115.5642179,51.1819414,433,Muskrat Street,,,,,,
-115.5640541,51.1820382,435,Muskrat Street,,,,,,
-115.5641427,51.18243,450,Banff Avenue,,,,,,
-115.5638846,51.1821292,437,Muskrat Street,,,,,,
-115.5636964,51.1822302,439,Muskrat Street,,,,,,
-115.5639566,51.1824999,452,Banff Avenue,,,,,,
-115.5635244,51.1823151,441,Muskrat Street,,,,,,
-115.5637721,51.1825724,454,Banff Avenue,,,,,,
-115.5634186,51.1825753,445,Muskrat Street,,,,,,
-115.5631582,51.1827189,447,Muskrat Street,,,,,,
-115.5629326,51.1828015,449,Muskrat Street,,,,,,
-115.5652801,51.1801364,408,Muskrat Street,,,,,,
-115.5648033,51.179947,407,Otter Street,,,,,,
-115.5650532,51.1802085,410,Muskrat Street,,,,,,
-115.5643416,51.1805743,418,Muskrat Street,,,,,,
-115.5641969,51.1806774,420,Muskrat Street,,,,,,
-115.5638867,51.180716,421,Otter Street,,,,,,
-115.5642393,51.1810167,424,Muskrat Street,,,,,,
-115.5641163,51.1811314,426,Muskrat Street,,,,,,
-115.5639848,51.181242,428,Muskrat Street,,,,,,
-115.5639097,51.1813732,430,Muskrat Street,,,,,,
-115.5637865,51.1814838,432,Muskrat Street,,,,,,
-115.5632258,51.1817459,438,Muskrat Street,,,,,,
-115.5630884,51.1818535,440,Muskrat Street,,,,,,
-115.5629415,51.181957,442,Muskrat Street,,,,,,
-115.5627933,51.18206,444,Muskrat Street,,,,,,
-115.5626487,51.1821647,446,Muskrat Street,,,,,,
-115.5625031,51.1822686,448,Muskrat Street,,,,,,
-115.5623912,51.1823848,450,Muskrat Street,,,,,,
-115.5623414,51.1825649,452,Muskrat Street,,,,,,
-115.5640345,51.1791572,601,Moose Street,,,,,,
-115.5645159,51.179348,402,Otter Street,,,,,,
-115.564199,51.1793845,404,Otter Street,,,,,,
-115.564123,51.1795157,406,Otter Street,,,,,,
-115.5640526,51.1796496,408,Otter Street,,,,,,
-115.5639889,51.1797871,410,Otter Street,,,,,,
-115.5639255,51.1799233,412,Otter Street,,,,,,
-115.5638104,51.1801263,414,Otter Street,,,,,,
-115.5654576,51.1783937,336,Otter Street,,,,,,
-115.565296,51.1784909,338,Otter Street,,,,,,
-115.5651792,51.1786068,340,Otter Street,,,,,,
-115.5650625,51.1787226,342,Otter Street,,,,,,
-115.5649456,51.1788381,344,Otter Street,,,,,,
-115.5648289,51.1789537,346,Otter Street,,,,,,
-115.5647124,51.1790695,348,Otter Street,,,,,,
-115.5642251,51.1788779,349,Grizzly Street,,,,,,
-115.5643263,51.1787578,347,Grizzly Street,,,,,,
-115.5644327,51.1786383,345,Grizzly Street,,,,,,
-115.5646635,51.1784675,341,Grizzly Street,,,,,,
-115.5658416,51.1765793,202,Otter Street,,,,,,
-115.5658299,51.1767163,204,Otter Street,,,,,,
-115.5658186,51.1768538,206,Otter Street,,,,,,
-115.5657938,51.1771281,212,Otter Street,,,,,,
-115.5657827,51.1772652,214,Otter Street,,,,,,
-115.565771,51.1774023,216,Otter Street,,,,,,
-115.5657591,51.1775395,220,Otter Street,,,,,,
-115.5657472,51.1776767,222,Otter Street,,,,,,
-115.5657352,51.1778136,224,Otter Street,,,,,,
-115.5657234,51.1779509,226,Otter Street,,,,,,
-115.5657122,51.1780884,603,Wolf Street,,,,,,
-115.564622,51.1779836,609,Wolf Street,,,,,,
-115.5650403,51.1779974,607,Wolf Street,,,,,,
-115.5648821,51.1777855,223,Grizzly Street,,,,,,
-115.5649093,51.1776485,221,Grizzly Street,,,,,,
-115.5649334,51.1775116,219,Grizzly Street,,,,,,
-115.5649522,51.1773748,217,Grizzly Street,,,,,,
-115.5649676,51.177238,213,Grizzly Street,,,,,,
-115.5649773,51.1771009,211,Grizzly Street,,,,,,
-115.5649827,51.176964,209,Grizzly Street,,,,,,
-115.56498,51.1768265,205,Grizzly Street,,,,,,
-115.565176,51.1766266,608,Caribou Street,,,,,,
-115.564757,51.1766127,606,Caribou Street,,,,,,
-115.5661042,51.1744412,602,Buffalo Street,,,,,,
-115.5660113,51.1746375,108,Otter Street,,,,,,
-115.5659652,51.1751839,118,Otter Street,,,,,,
-115.5659534,51.1753213,120,Otter Street,,,,,,
-115.565941,51.1754578,122,Otter Street,,,,,,
-115.5659294,51.1755944,124,Otter Street,,,,,,
-115.5659174,51.1757311,126,Otter Street,,,,,,
-115.5659055,51.1758679,128,Otter Street,,,,,,
-115.5658934,51.1760047,132,Otter Street,,,,,,
-115.5658816,51.1761417,136,Otter Street,,,,,,
-115.5658702,51.1762786,138,Otter Street,,,,,,
-115.5647098,51.176241,609,Caribou Street,,,,,,
-115.5651835,51.1761875,607,Caribou Street,,,,,,
-115.56471,51.175965,133,Grizzly Street,,,,,,
-115.564963,51.1758367,129,Grizzly Street,,,,,,
-115.5652298,51.1757215,127,Grizzly Street,,,,,,
-115.5650065,51.1755638,125,Grizzly Street,,,,,,
-115.565041,51.1754278,123,Grizzly Street,,,,,,
-115.5650849,51.1752921,121,Grizzly Street,,,,,,
-115.5651421,51.1750883,117,Grizzly Street,,,,,,
-115.5622757,51.1838197,501,Banff Avenue,,,,,,
-115.5616006,51.1840442,513,Banff Avenue,,,,,,
-115.5607339,51.1843323,521,Banff Avenue,,,,,,
-115.5600186,51.1836592,520,Banff Avenue,,,,,,
-115.5604424,51.1836221,518,Banff Avenue,,,,,,
-115.5606336,51.1835531,516,Banff Avenue,,,,,,
-115.560829,51.1834918,514,Banff Avenue,,,,,,
-115.5610214,51.1834276,512,Banff Avenue,,,,,,
-115.561214,51.1833637,510,Banff Avenue,,,,,,
-115.5614066,51.1832997,508,Banff Avenue,,,,,,
-115.561989,51.1829929,502,Banff Avenue,,,,,,
-115.561871,51.1826817,501,Deer Street,,,,,,
-115.5616782,51.1827452,503,Deer Street,,,,,,
-115.5614858,51.182809,505,Deer Street,,,,,,
-115.5612932,51.1828728,507,Deer Street,,,,,,
-115.5611006,51.1829375,509,Deer Street,,,,,,
-115.5609083,51.1830019,511,Deer Street,,,,,,
-115.5607158,51.1830654,513,Deer Street,,,,,,
-115.5605228,51.1831292,515,Deer Street,,,,,,
-115.5603298,51.1831931,517,Deer Street,,,,,,
-115.5600409,51.1832895,519,Deer Street,,,,,,
-115.5595605,51.1834493,525,Deer Street,,,,,,
-115.5591151,51.1835521,529,Deer Street,,,,,,
-115.5591818,51.1840832,526,Banff Avenue,,,,,,
-115.5588949,51.1841368,530,Banff Avenue,,,,,,
-115.5586056,51.1842328,532,Banff Avenue,,,,,,
-115.5583164,51.1843287,536,Banff Avenue,,,,,,
-115.5581233,51.1843929,538,Banff Avenue,,,,,,
-115.5579301,51.1844573,540,Banff Avenue,,,,,,
-115.5577368,51.1845215,542,Banff Avenue,,,,,,
-115.5575436,51.1845854,544,Banff Avenue,,,,,,
-115.5581996,51.1832949,534,Deer Street,,,,,,
-115.5583922,51.1832313,532,Deer Street,,,,,,
-115.5585845,51.1831675,530,Deer Street,,,,,,
-115.5587768,51.1831037,528,Deer Street,,,,,,
-115.558969,51.1830399,526,Deer Street,,,,,,
-115.5591613,51.1829754,524,Deer Street,,,,,,
-115.5593536,51.1829118,522,Deer Street,,,,,,
-115.5595461,51.1828469,520,Deer Street,,,,,,
-115.5597389,51.1827836,518,Deer Street,,,,,,
-115.5599308,51.1827189,516,Deer Street,,,,,,
-115.5603416,51.1826219,512,Deer Street,,,,,,
-115.5605318,51.1825549,510,Deer Street,,,,,,
-115.5607219,51.1824876,508,Deer Street,,,,,,
-115.5609113,51.1824194,506,Deer Street,,,,,,
-115.5610861,51.1823346,504,Deer Street,,,,,,
-115.5612779,51.1822702,502,Deer Street,,,,,,
-115.5615537,51.1821784,500,Deer Street,,,,,,
-115.564114,51.1752588,120,Grizzly Street,,,,,,
-115.5639837,51.1755281,124,Grizzly Street,,,,,,
-115.5639417,51.1756636,126,Grizzly Street,,,,,,
-115.5639138,51.1757994,128,Grizzly Street,,,,,,
-115.5638978,51.1759358,132,Grizzly Street,,,,,,
-115.5638959,51.1760729,136,Grizzly Street,,,,,,
-115.5639087,51.1762109,138,Grizzly Street,,,,,,
-115.5632413,51.176051,135,Wolverine Street,,,,,,
-115.5632445,51.1759138,131,Wolverine Street,,,,,,
-115.5632586,51.1757771,129,Wolverine Street,,,,,,
-115.5632832,51.1756401,127,Wolverine Street,,,,,,
-115.5633231,51.1755041,125,Wolverine Street,,,,,,
-115.5633736,51.1753694,123,Wolverine Street,,,,,,
-115.5634432,51.1752347,121,Wolverine Street,,,,,,
-115.56359,51.1750431,119,Wolverine Street,,,,,,
-115.5639847,51.1766542,204,Grizzly Street,,,,,,
-115.5639744,51.1765162,202,Grizzly Street,,,,,,
-115.5588424,51.184961,537,Banff Avenue,,,,,,
-115.5580722,51.1852171,545,Banff Avenue,,,,,,
-115.5571385,51.1855277,555,Banff Avenue,,,,,,
-115.5564102,51.1864386,565,Banff Avenue,,,,,,
-115.5638023,51.1778184,226,Saint Julien Road,,,,,,
-115.5637517,51.177554,222,Saint Julien Road,,,,,,
-115.5636784,51.1773613,220,Saint Julien Road,,,,,,
-115.5636102,51.1772349,218,Saint Julien Road,,,,,,
-115.5634837,51.1770482,216,Saint Julien Road,,,,,,
-115.5632313,51.1768331,210,Saint Julien Road,,,,,,
-115.5630602,51.1766712,208,Saint Julien Road,,,,,,
-115.562307,51.1761465,136,Saint Julien Road,,,,,,
-115.5621721,51.1758178,132,Saint Julien Road,,,,,,
-115.5707966,51.1828523,415,Squirrel Street,,,,,,
-115.5740727,51.1810432,325,Big Horn Street,,,,,,
-115.5739009,51.1812165,329,Big Horn Street,,,,,,
-115.5737263,51.1813884,333,Big Horn Street,,,,,,
-115.5735546,51.181562,337,Big Horn Street,,,,,,
-115.573267,51.1817277,341,Big Horn Street,,,,,,
-115.5742348,51.1814065,332,Mountain Goat Lane,,,,,,
-115.5745946,51.1812496,328,Elk Street,,,,,,
-115.5745599,51.1797429,316,Lynx Street,,,,,,
-115.574673,51.1799356,318,Lynx Street,,,,,,
-115.5747842,51.1801284,320,Lynx Street,,,,,,
-115.5748952,51.1803215,322,Lynx Street,,,,,,
-115.5750057,51.1805149,328,Lynx Street,,,,,,
-115.575117,51.1807082,330,Lynx Street,,,,,,
-115.5752265,51.1809198,336,Lynx Street,,,,,,
-115.5737923,51.1804702,324,Big Horn Street,,,,,,
-115.573978,51.1802861,320,Big Horn Street,,,,,,
-115.5741477,51.1800376,316,Big Horn Street,,,,,,
-115.5739041,51.1797419,309,Squirrel Street,,,,,,
-115.5737196,51.1799267,311,Squirrel Street,,,,,,
-115.5735346,51.1801113,317,Squirrel Street,,,,,,
-115.5733498,51.1802958,321,Squirrel Street,,,,,,
-115.5642938,51.1838323,453,Cougar Street,,,,,,
-115.5644671,51.1838283,451,Cougar Street,,,,,,
-115.5650779,51.1838249,445,Cougar Street,,,,,,
-115.5652856,51.1838382,443,Cougar Street,,,,,,
-115.565702,51.1838872,439,Cougar Street,,,,,,
-115.5659091,51.183917,437,Cougar Street,,,,,,
-115.5661146,51.1839469,435,Cougar Street,,,,,,
-115.5663498,51.1839773,433,Cougar Street,,,,,,
-115.5665901,51.1839985,431,Cougar Street,,,,,,
-115.5668216,51.184011,429,Cougar Street,,,,,,
-115.56706,51.1840142,427,Cougar Street,,,,,,
-115.5672854,51.184007,425,Cougar Street,,,,,,
-115.5675093,51.1839961,423,Cougar Street,,,,,,
-115.5679423,51.183974,413,Cougar Street,,,,,,
-115.5681523,51.1839733,411,Cougar Street,,,,,,
-115.5683678,51.1839801,409,Cougar Street,,,,,,
-115.5688712,51.184083,407,Cougar Street,,,,,,
-115.568147,51.1842667,415,Cougar Place,,,,,,
-115.5680887,51.184463,417,Cougar Place,,,,,,
-115.5674452,51.1845498,419,Cougar Place,,,,,,
-115.5672435,51.1843697,421,Cougar Place,,,,,,
-115.5570808,51.190141,100,Eagle Crescent,,,,,,
-115.5608844,51.1899244,101,Owl Street,,,,,,
-115.5607661,51.1897184,103,Owl Street,,,,,,
-115.5592133,51.1898383,105,Falcon Street,,,,,,
-115.5600648,51.1901107,100,Owl Street,,,,,,
-115.5569775,51.1869193,238,Marmot Crescent,,,,,,
-115.5570921,51.1870361,236,Marmot Crescent,,,,,,
-115.55722,51.1871485,234,Marmot Crescent,,,,,,
-115.5575295,51.187271,232,Marmot Crescent,,,,,,
-115.5572776,51.1873479,230,Marmot Place,,,,,,
-115.5570133,51.1874291,228,Marmot Place,,,,,,
-115.5567966,51.1875606,226,Marmot Place,,,,,,
-115.5567633,51.1877955,224,Marmot Place,,,,,,
-115.5568724,51.1880513,222,Marmot Place,,,,,,
-115.5572214,51.1880547,220,Marmot Place,,,,,,
-115.5575496,51.1879818,218,Marmot Place,,,,,,
-115.5577494,51.1879197,216,Marmot Place,,,,,,
-115.5579495,51.1878469,214,Marmot Place,,,,,,
-115.5581139,51.1877522,212,Marmot Place,,,,,,
-115.5583348,51.1876439,210,Marmot Crescent,,,,,,
-115.5586323,51.1876956,208,Marmot Crescent,,,,,,
-115.5589718,51.1876837,206,Marmot Crescent,,,,,,
-115.5599158,51.1871362,173,Marmot Crescent,,,,,,
-115.559761,51.1871704,175,Marmot Crescent,,,,,,
-115.5596045,51.1872008,177,Marmot Crescent,,,,,,
-115.5594461,51.1872283,179,Marmot Crescent,,,,,,
-115.5592873,51.1872507,181,Marmot Crescent,,,,,,
-115.5601816,51.1869064,171,Marmot Crescent,,,,,,
-115.5602029,51.1868033,169,Marmot Crescent,,,,,,
-115.5602158,51.186698,167,Marmot Crescent,,,,,,
-115.5602348,51.1865946,165,Marmot Crescent,,,,,,
-115.5602519,51.1864911,163,Marmot Crescent,,,,,,
-115.5593613,51.186696,183,Porcupine Place,,,,,,
-115.5592579,51.1867253,185,Porcupine Place,,,,,,
-115.5591546,51.1867545,187,Porcupine Place,,,,,,
-115.5590513,51.1867837,189,Porcupine Place,,,,,,
-115.5589479,51.186813,191,Porcupine Place,,,,,,
-115.5588446,51.1868422,193,Porcupine Place,,,,,,
-115.5588124,51.1866115,195,Porcupine Place,,,,,,
-115.5587571,51.1865493,197,Porcupine Place,,,,,,
-115.5587018,51.1864872,199,Porcupine Place,,,,,,
-115.5586465,51.186425,201,Porcupine Place,,,,,,
-115.5585912,51.1863628,203,Porcupine Place,,,,,,
-115.5585359,51.1863007,205,Porcupine Place,,,,,,
-115.5610246,51.1869178,172,Marmot Crescent,,,,,,
-115.5609846,51.1868626,170,Marmot Crescent,,,,,,
-115.5609353,51.1868109,168,Marmot Crescent,,,,,,
-115.5608972,51.186755,166,Marmot Crescent,,,,,,
-115.5608576,51.1866997,164,Marmot Crescent,,,,,,
-115.5669181,51.1744991,512,Buffalo Street,,,,,,
-115.5603885,51.1859814,143,Pika Place,,,,,,
-115.560275,51.185981,145,Pika Place,,,,,,
-115.5601615,51.1859806,147,Pika Place,,,,,,
-115.5600481,51.1859802,149,Pika Place,,,,,,
-115.5597952,51.1859672,151,Pika Place,,,,,,
-115.5596812,51.1859608,153,Pika Place,,,,,,
-115.5595673,51.1859489,155,Pika Place,,,,,,
-115.559457,51.1859358,157,Pika Place,,,,,,
-115.5593467,51.1859193,159,Pika Place,,,,,,
-115.5592365,51.1859028,161,Pika Place,,,,,,
-115.5742496,51.1818551,335,Mountain Goat Lane,,,,,,
-115.5738823,51.1820377,339,Mountain Goat Lane,,,,,,
-115.5511446,51.1835657,0,Tunnel Mountain Road,,,,,,
-115.550897,51.1847741,0,Tunnel Mountain Road,,,,,,
-115.5461796,51.1880431,901,Hidden Ridge Way,,,,,,
-115.5486757,51.1838811,0,Tunnel Mountain Road,,,,,,
-115.5734312,51.1760743,135,Lynx Street,,,,,,
-115.5743329,51.1760896,136,Bow Avenue,,,,,,
-115.5735425,51.1762682,137,Lynx Street,,,,,,
-115.5745254,51.1765469,202,Bow Avenue,,,,,,
-115.5742545,51.1775699,201,Lynx Street,,,,,,
-115.574775,51.1770377,212,Bow Avenue,,,,,,
-115.574906,51.1772275,216,Bow Avenue,,,,,,
-115.5750517,51.1774139,220,Bow Avenue,,,,,,
-115.5752528,51.1776417,222,Bow Avenue,,,,,,
-115.575166,51.1775518,222,Bow Avenue,,,,,,
-115.5755244,51.177854,228,Bow Avenue,,,,,,
-115.5707228,51.1740235,94,Banff Avenue,,,,,,
-115.5707092,51.1741839,98,Banff Avenue,,,,,,
-115.5703987,51.1739821,301,Buffalo Street,,,,,,
-115.5683922,51.1739519,325,Buffalo Street,,,,,,
-115.5677618,51.1739128,501,Buffalo Street,,,,,,
-115.5673818,51.1738763,505,Buffalo Street,,,,,,
-115.5671063,51.1739576,509,Buffalo Street,,,,,,
-115.5667151,51.1738398,513,Buffalo Street,,,,,,
-115.5664927,51.1737081,517,Buffalo Street,,,,,,
-115.5663022,51.1735393,521,Buffalo Street,,,,,,
-115.5661391,51.173375,525,Buffalo Street,,,,,,
-115.5660263,51.1732017,529,Buffalo Street,,,,,,
-115.5659396,51.1730101,533,Buffalo Street,,,,,,
-115.5658203,51.1728136,537,Buffalo Street,,,,,,
-115.5656981,51.1726227,541,Buffalo Street,,,,,,
-115.5655672,51.1724333,545,Buffalo Street,,,,,,
-115.5651315,51.1718781,557,Buffalo Street,,,,,,
-115.5649691,51.1716977,561,Buffalo Street,,,,,,
-115.5647478,51.1714744,565,Buffalo Street,,,,,,
-115.5727933,51.176368,103,Caribou Street,,,,,,
-115.5681183,51.1706929,112,Spray Avenue,,,,,,
-115.5681776,51.1704326,114,Spray Avenue,,,,,,
-115.5675859,51.1705765,113,Glen Avenue,,,,,,
-115.567908,51.1701386,116,Spray Avenue,,,,,,
-115.5673737,51.1703393,115,Glen Avenue,,,,,,
-115.5677196,51.1698806,118,Spray Avenue,,,,,,
-115.5675332,51.1695432,120,Spray Avenue,,,,,,
-115.5670811,51.1697937,119,Glen Avenue,,,,,,
-115.5667596,51.1692882,123,Glen Avenue,,,,,,
-115.5673187,51.1692329,124,Spray Avenue,,,,,,
-115.5669506,51.169528,121,Glen Avenue,,,,,,
-115.5616506,51.1648717,400,Spray Avenue,,,,,,
-115.5695069,51.1705029,109,Spray Avenue,,,,,,
-115.5692326,51.1702303,111,Spray Avenue,,,,,,
-115.5698382,51.1700017,114,Mountain Avenue,,,,,,
-115.569918,51.1702537,112,Mountain Avenue,,,,,,
-115.5696926,51.1697783,100,Mountain Lane,,,,,,
-115.5689712,51.1699707,113,Spray Avenue,,,,,,
-115.5689428,51.1694281,117,Spray Avenue,,,,,,
-115.568736,51.1691904,119,Spray Avenue,,,,,,
-115.5685421,51.1689478,121,Spray Avenue,,,,,,
-115.5683528,51.1686996,123,Spray Avenue,,,,,,
-115.568158,51.1684492,125,Spray Avenue,,,,,,
-115.5679432,51.1682069,127,Spray Avenue,,,,,,
-115.5677338,51.1679946,129,Spray Avenue,,,,,,
-115.5678384,51.1671549,136,Kootenay Avenue,,,,,,
-115.5681821,51.167327,134,Kootenay Avenue,,,,,,
-115.5692416,51.1682844,124,Kootenay Avenue,,,,,,
-115.5695122,51.1686426,122,Kootenay Avenue,,,,,,
-115.5696583,51.1688792,120,Kootenay Avenue,,,,,,
-115.5697758,51.1691222,118,Mountain Avenue,,,,,,
-115.5699065,51.1693541,116,Mountain Avenue,,,,,,
-115.5675547,51.1664556,140,Kootenay Avenue,,,,,,
-115.5675764,51.1668315,138,Kootenay Avenue,,,,,,
-115.5701233,51.1678531,125,Kootenay Avenue,,,,,,
-115.5697342,51.1674658,129,Kootenay Avenue,,,,,,
-115.5692398,51.1671182,133,Kootenay Avenue,,,,,,
-115.5687579,51.1667661,137,Kootenay Avenue,,,,,,
-115.5742678,51.1682509,139,Rainbow Avenue,,,,,,
-115.5739912,51.1684557,137,Rainbow Avenue,,,,,,
-115.5736805,51.1685761,135,Rainbow Avenue,,,,,,
-115.5733339,51.168682,133,Rainbow Avenue,,,,,,
-115.5729624,51.1687536,131,Rainbow Avenue,,,,,,
-115.5725761,51.1687874,129,Rainbow Avenue,,,,,,
-115.5718373,51.1687854,125,Rainbow Avenue,,,,,,
-115.5714884,51.1687806,123,Rainbow Avenue,,,,,,
-115.5707146,51.1688181,119,Mountain Avenue,,,,,,
-115.5707053,51.1691197,117,Mountain Avenue,,,,,,
-115.5712352,51.169169,114,Park Avenue,,,,,,
-115.5719537,51.1691715,118,Park Avenue,,,,,,
-115.5723034,51.1691727,120,Park Avenue,,,,,,
-115.5726604,51.1691714,122,Park Avenue,,,,,,
-115.5730168,51.1691477,124,Park Avenue,,,,,,
-115.5733595,51.1690965,126,Park Avenue,,,,,,
-115.5736872,51.1690151,128,Park Avenue,,,,,,
-115.5739872,51.1689246,130,Park Avenue,,,,,,
-115.5742581,51.1687886,132,Park Avenue,,,,,,
-115.5747187,51.168392,136,Park Avenue,,,,,,
-115.57343,51.1714549,105,Cave Avenue,,,,,,
-115.5738287,51.1713677,107,Cave Avenue,,,,,,
-115.5746335,51.1712485,111,Cave Avenue,,,,,,
-115.5751926,51.1708028,113,Cave Avenue,,,,,,
-115.5769173,51.1708553,121,Cave Avenue,,,,,,
-115.5786621,51.1709137,129,Cave Avenue,,,,,,
-115.5791034,51.1709007,131,Cave Avenue,,,,,,
-115.5796055,51.170989,133,Cave Avenue,,,,,,
-115.5805065,51.17091,137,Cave Avenue,,,,,,
-115.5709652,51.1696202,115,Mountain Avenue,,,,,,
-115.5648353,51.1640478,401,Spray Avenue,,,,,,
-115.5726084,51.1721161,101,Birch Avenue,,,,,,
-115.5808438,51.1748073,0,Drive,,,,,,
-115.5816709,51.1747776,100,Sundance Road,,,,,,
-115.5824981,51.1747469,100,Sundance Road,,,,,,
-115.5656997,51.1798172,402,Muskrat Street,,,,,,
-115.5651914,51.1796156,401,Otter Street,,,,,,
-115.5655726,51.1799287,404,Muskrat Street,,,,,,
-115.5650684,51.1797285,403,Otter Street,,,,,,
-115.565436,51.1800362,406,Muskrat Street,,,,,,
-115.5649457,51.1798416,405,Otter Street,,,,,,
-115.5612567,51.1890611,137,Eagle Crescent,,,,,,
-115.55945,51.1902504,101,Falcon Street,,,,,,
-115.5592077,51.1895266,123,Eagle Crescent,,,,,,
-115.5599464,51.1899047,102,Owl Street,,,,,,
-115.5579463,51.1898352,107,Eagle Crescent,,,,,,
-115.5582927,51.1896471,108,Falcon Street,,,,,,
-115.5584037,51.1898405,106,Falcon Street,,,,,,
-115.5628648,51.1848004,501,Spruce Street,,,,,,
-115.5628296,51.1848451,503,Spruce Street,,,,,,
-115.5628087,51.184896,505,Spruce Street,,,,,,
-115.5627735,51.1849407,507,Spruce Street,,,,,,
-115.5627525,51.1849916,509,Spruce Street,,,,,,
-115.5624351,51.1851486,511,Spruce Street,,,,,,
-115.5623558,51.1851317,513,Spruce Street,,,,,,
-115.5622875,51.1851063,515,Spruce Street,,,,,,
-115.5622593,51.1850458,517,Spruce Street,,,,,,
-115.5621918,51.1850112,519,Spruce Street,,,,,,
-115.5628745,51.1844757,90,Fox Street,,,,,,
-115.5628376,51.1844322,92,Fox Street,,,,,,
-115.5627701,51.1843989,94,Fox Street,,,,,,
-115.5627332,51.1843554,96,Fox Street,,,,,,
-115.5695011,51.1812603,0,,,,,,,
-115.5700021,51.1819363,0,,,,,,,
-115.5703975,51.1822561,0,,,,,,,
-115.5683909,51.1827376,0,,,,,,,
-115.5676694,51.1832406,0,,,,,,,
-115.5674766,51.1832463,0,,,,,,,
-115.5644274,51.182145,0,,,,,,,
-115.5617017,51.1830384,0,,,,,,,
-115.5621809,51.1829431,0,,,,,,,
-115.5579942,51.1626538,0,,,,,,,
-115.5682291,51.1659521,0,,,,,,,
-115.5760591,51.1706627,0,,,,,,,
-115.5764759,51.1708571,0,,,,,,,
-115.5837957,51.1701562,0,,,,,,,
-115.5616004,51.1618821,0,,,,,,,
-115.5627271,51.1843016,98,Fox Street,,,,,,
-115.5626903,51.1842581,100,Fox Street,,,,,,
-115.5620566,51.1844711,511,Cougar Street,,,,,,
-115.562128,51.1845094,509,Cougar Street,,,,,,
-115.5621994,51.1845477,507,Cougar Street,,,,,,
-115.5622709,51.1845862,505,Cougar Street,,,,,,
-115.5623425,51.1846243,503,Cougar Street,,,,,,
-115.5623829,51.1846728,501,Cougar Street,,,,,,
-115.5615383,51.1847627,513,Cougar Street,,,,,,
-115.5614612,51.1847884,515,Cougar Street,,,,,,
-115.5613678,51.1847946,517,Cougar Street,,,,,,
-115.5612907,51.1848202,519,Cougar Street,,,,,,
-115.5609783,51.1849047,152,Marmot Crescent,,,,,,
-115.561015,51.1849483,154,Marmot Crescent,,,,,,
-115.5610838,51.1849843,156,Marmot Crescent,,,,,,
-115.561156,51.1850224,158,Marmot Crescent,,,,,,
-115.5612276,51.1850606,160,Marmot Crescent,,,,,,
-115.5612993,51.1850988,162,Marmot Crescent,,,,,,
-115.566382,51.1691062,201,Glen Crescent,,,,,,
-115.5666279,51.1690135,203,Glen Crescent,,,,,,
-115.5668786,51.1689517,205,Glen Crescent,,,,,,
-115.5669025,51.1686686,207,Glen Crescent,,,,,,
-115.5668197,51.1684961,209,Glen Crescent,,,,,,
-115.566651,51.1683663,211,Glen Crescent,,,,,,
-115.5664821,51.1682398,213,Glen Crescent,,,,,,
-115.5663131,51.1681131,215,Glen Crescent,,,,,,
-115.5661441,51.167986,217,Glen Crescent,,,,,,
-115.5659822,51.1678682,219,Glen Crescent,,,,,,
-115.5656316,51.1678342,221,Glen Crescent,,,,,,
-115.5653561,51.167886,223,Glen Crescent,,,,,,
-115.565127,51.1679469,225,Glen Crescent,,,,,,
-115.565475,51.1683777,224,Glen Crescent,,,,,,
-115.5657116,51.168322,222,Glen Crescent,,,,,,
-115.5661512,51.1686588,202,Glen Crescent,,,,,,
-115.5659116,51.1687399,200,Glen Crescent,,,,,,
-115.5751347,51.1678517,143,Park Avenue,,,,,,
-115.5754645,51.1685002,137,Park Avenue,,,,,,
-115.5753236,51.1686984,135,Park Avenue,,,,,,
-115.5751538,51.168882,133,Park Avenue,,,,,,
-115.574723,51.1691816,131,Park Avenue,,,,,,
-115.5744686,51.1693103,129,Park Avenue,,,,,,
-115.5746685,51.1670189,104,Nahanni Drive,,,,,,
-115.5747349,51.1670546,103,Nahanni Drive,,,,,,
-115.5748006,51.1670908,102,Nahanni Drive,,,,,,
-115.5748718,51.1671226,101,Nahanni Drive,,,,,,
-115.5742908,51.1672859,108,Nahanni Drive,,,,,,
-115.574273,51.1672324,107,Nahanni Drive,,,,,,
-115.5742489,51.1671799,106,Nahanni Drive,,,,,,
-115.5742312,51.1671265,105,Nahanni Drive,,,,,,
-115.5738362,51.1673275,112,Nahanni Drive,,,,,,
-115.5738554,51.1673811,111,Nahanni Drive,,,,,,
-115.5738808,51.1674336,110,Nahanni Drive,,,,,,
-115.5739,51.1674871,109,Nahanni Drive,,,,,,
-115.5734894,51.1675884,116,Nahanni Drive,,,,,,
-115.5734713,51.1675346,115,Nahanni Drive,,,,,,
-115.5734543,51.1674807,114,Nahanni Drive,,,,,,
-115.5734289,51.1674281,113,Nahanni Drive,,,,,,
-115.5726458,51.1676362,120,Nahanni Drive,,,,,,
-115.572732,51.1676299,119,Nahanni Drive,,,,,,
-115.572819,51.1676235,118,Nahanni Drive,,,,,,
-115.5729056,51.1676171,117,Nahanni Drive,,,,,,
-115.5719088,51.1675434,124,Nahanni Drive,,,,,,
-115.5719168,51.1675981,123,Nahanni Drive,,,,,,
-115.571929,51.1676525,122,Nahanni Drive,,,,,,
-115.571937,51.1677071,121,Nahanni Drive,,,,,,
-115.5718569,51.1674359,128,Nahanni Drive,,,,,,
-115.5717999,51.1673943,127,Nahanni Drive,,,,,,
-115.5717381,51.1673555,126,Nahanni Drive,,,,,,
-115.571681,51.167314,125,Nahanni Drive,,,,,,
-115.5712631,51.1672775,132,Nahanni Drive,,,,,,
-115.5713485,51.1672708,131,Nahanni Drive,,,,,,
-115.5714353,51.1672601,130,Nahanni Drive,,,,,,
-115.5715207,51.1672531,129,Nahanni Drive,,,,,,
-115.5712808,51.1677362,136,Nahanni Drive,,,,,,
-115.571367,51.1677299,135,Nahanni Drive,,,,,,
-115.5714541,51.1677234,134,Nahanni Drive,,,,,,
-115.5715404,51.1677171,133,Nahanni Drive,,,,,,
-115.5708478,51.1675834,140,Nahanni Drive,,,,,,
-115.5709022,51.1676261,139,Nahanni Drive,,,,,,
-115.5709557,51.1676693,138,Nahanni Drive,,,,,,
-115.5710159,51.1677089,137,Nahanni Drive,,,,,,
-115.5709704,51.1672722,144,Nahanni Drive,,,,,,
-115.5709274,51.1673199,143,Nahanni Drive,,,,,,
-115.5708923,51.1673702,142,Nahanni Drive,,,,,,
-115.5708561,51.1674201,141,Nahanni Drive,,,,,,
-115.5718515,51.1670252,209,Kluane Drive,,,,,,
-115.5717648,51.167021,210,Kluane Drive,,,,,,
-115.5716777,51.1670168,211,Kluane Drive,,,,,,
-115.571591,51.1670126,212,Kluane Drive,,,,,,
-115.5722827,51.167246,205,Kluane Drive,,,,,,
-115.572225,51.1672126,206,Kluane Drive,,,,,,
-115.5721673,51.1671792,207,Kluane Drive,,,,,,
-115.5741928,51.1694195,208,Kluane Drive,,,,,,
-115.5726185,51.1674404,201,Kluane Drive,,,,,,
-115.5725607,51.167407,202,Kluane Drive,,,,,,
-115.572503,51.1673735,203,Kluane Drive,,,,,,
-115.5724452,51.1673401,204,Kluane Drive,,,,,,
-115.5705449,51.1671291,225,Kluane Drive,,,,,,
-115.5704597,51.1671367,226,Kluane Drive,,,,,,
-115.570373,51.1671487,227,Kluane Drive,,,,,,
-115.5702878,51.1671563,228,Kluane Drive,,,,,,
-115.5699791,51.1667802,232,Kluane Drive,,,,,,
-115.5700533,51.166809,231,Kluane Drive,,,,,,
-115.5701271,51.1668331,230,Kluane Drive,,,,,,
-115.570205,51.1668587,229,Kluane Drive,,,,,,
-115.5699277,51.1664537,236,Kluane Drive,,,,,,
-115.5699331,51.1665084,235,Kluane Drive,,,,,,
-115.5699416,51.166563,234,Kluane Drive,,,,,,
-115.569947,51.1666177,233,Kluane Drive,,,,,,
-115.5694515,51.1665216,241,Kluane Drive,,,,,,
-115.569458,51.1664725,242,Kluane Drive,,,,,,
-115.5694644,51.1664234,243,Kluane Drive,,,,,,
-115.5694709,51.1663743,244,Kluane Drive,,,,,,
-115.5694791,51.166284,245,Kluane Drive,,,,,,
-115.569494,51.1662358,246,Kluane Drive,,,,,,
-115.5695089,51.1661874,247,Kluane Drive,,,,,,
-115.5695238,51.166139,248,Kluane Drive,,,,,,
-115.5701522,51.1662142,240,Kluane Drive,,,,,,
-115.5701376,51.1662626,239,Kluane Drive,,,,,,
-115.5701229,51.166311,238,Kluane Drive,,,,,,
-115.5701082,51.1663594,237,Kluane Drive,,,,,,
-115.570435,51.16656,224,Kluane Drive,,,,,,
-115.5704783,51.1666077,223,Kluane Drive,,,,,,
-115.5705208,51.1666556,222,Kluane Drive,,,,,,
-115.5705705,51.1667008,221,Kluane Drive,,,,,,
-115.5708131,51.1668034,220,Kluane Drive,,,,,,
-115.5708997,51.1667956,219,Kluane Drive,,,,,,
-115.5709846,51.1667886,218,Kluane Drive,,,,,,
-115.5710697,51.166776,217,Kluane Drive,,,,,,
-115.5712126,51.1667576,216,Kluane Drive,,,,,,
-115.5712977,51.1667497,215,Kluane Drive,,,,,,
-115.5713842,51.1667375,214,Kluane Drive,,,,,,
-115.5714693,51.1667296,213,Kluane Drive,,,,,,
-115.5574093,51.1894474,114,Eagle Crescent,,,,,,
-115.5576902,51.1893836,116,Eagle Crescent,,,,,,
-115.5689291,51.1800919,340,Banff Avenue,,,,,,
-115.5590935,51.1890651,126,Eagle Crescent,,,,,,
-115.5593747,51.1890011,128,Eagle Crescent,,,,,,
-115.562861,51.1887273,152,Eagle Crescent,,,,,,
-115.562767,51.1882,150,Eagle Crescent,,,,,,
-115.5624111,51.1895559,200,Hawk Avenue,,,,,,
-115.5620013,51.1893081,107,Jay Street,,,,,,
-115.5624719,51.1892017,147,Eagle Crescent,,,,,,
-115.5632248,51.189359,160,Eagle Crescent,,,,,,
-115.5677289,51.1707003,112,Spray Avenue,,,,,,
-115.5793887,51.1710153,132,Cave Avenue,,,,,,
-115.579478,51.1710099,132,Cave Avenue,,,,,,
-115.5796955,51.1709949,133,Cave Avenue,,,,,,
-115.5644223,51.1750096,116,Grizzly Street,,,,,,
-115.5642623,51.1750098,116,Grizzly Street,,,,,,
-115.5642939,51.1751031,116,Grizzly Street,,,,,,
-115.5642583,51.1751565,116,Grizzly Street,,,,,,
-115.5577044,51.1862944,231,Marmot Crescent,,,,,,
-115.5633862,51.1858944,0,Whiskey Jack Crescent,,,,,,
-115.560137,51.1853315,600,Cougar Street,,,,,,
-115.5479628,51.1855533,0,Tunnel Mountain Road,,,,,,
-115.5707413,51.1738108,90,Banff Avenue,,,,,,
-115.5743939,51.1713016,110,Cave Avenue,,,,,,
-115.5591697,51.1620545,500,Spray Avenue,,,,,,
-115.5675985,51.1696768,120,Spray Avenue,,,,,,
-115.5673226,51.1665907,142,Rundle Avenue,,,,,,
-115.5765241,51.1802489,100,Gopher Street,,,,,,
-115.5635252,51.1886724,0,Transformer Site,,,,,,
-115.5690283,51.1715721,102,Spray Avenue,,,,,,
-115.5604961,51.1892339,131,Owl Street,,,,,,
-115.5596127,51.1847048,527,Banff Avenue,,,,,,
-115.5755281,51.1681767,139,Park Avenue,,,,,,
-115.5755215,51.1683226,139,Park Avenue,,,,,,
-115.5759436,51.1672434,100,Glacier Drive,,,,,,
-115.5760253,51.1673685,102,Glacier Drive,,,,,,
-115.5761217,51.1674543,104,Glacier Drive,,,,,,
-115.5762194,51.1675401,106,Glacier Drive,,,,,,
-115.5763222,51.1676235,108,Glacier Drive,,,,,,
-115.5764432,51.1676953,110,Glacier Drive,,,,,,
-115.5765669,51.1677677,112,Glacier Drive,,,,,,
-115.5767002,51.167835,114,Glacier Drive,,,,,,
-115.5768195,51.1679086,116,Glacier Drive,,,,,,
-115.5769437,51.167972,118,Glacier Drive,,,,,,
-115.577089,51.1680217,120,Glacier Drive,,,,,,
-115.5772402,51.1680776,122,Glacier Drive,,,,,,
-115.5774786,51.1681385,124,Glacier Drive,,,,,,
-115.5776329,51.1681898,126,Glacier Drive,,,,,,
-115.5777872,51.1682417,128,Glacier Drive,,,,,,
-115.5779299,51.1683011,130,Glacier Drive,,,,,,
-115.5780614,51.1683689,132,Glacier Drive,,,,,,
-115.578192,51.1684347,134,Glacier Drive,,,,,,
-115.5783169,51.1685069,136,Glacier Drive,,,,,,
-115.578433,51.1685867,138,Glacier Drive,,,,,,
-115.5785416,51.1686851,140,Glacier Drive,,,,,,
-115.5786488,51.1687942,142,Glacier Drive,,,,,,
-115.5787436,51.1689194,144,Glacier Drive,,,,,,
-115.5788336,51.1690532,146,Glacier Drive,,,,,,
-115.5789706,51.1691262,224,Jasper Way,,,,,,
-115.5791134,51.1691717,226,Jasper Way,,,,,,
-115.5788881,51.1695117,255,Jasper Way,,,,,,
-115.5787077,51.169472,253,Jasper Way,,,,,,
-115.578538,51.1694346,251,Jasper Way,,,,,,
-115.5783794,51.1693997,249,Jasper Way,,,,,,
-115.5782209,51.1693648,247,Jasper Way,,,,,,
-115.5780623,51.1693299,245,Jasper Way,,,,,,
-115.5779038,51.169295,243,Jasper Way,,,,,,
-115.5777452,51.1692601,241,Jasper Way,,,,,,
-115.577588,51.1692255,239,Jasper Way,,,,,,
-115.5774178,51.1691935,237,Jasper Way,,,,,,
-115.5772646,51.169181,235,Jasper Way,,,,,,
-115.5770637,51.1691736,233,Jasper Way,,,,,,
-115.576894,51.169175,231,Jasper Way,,,,,,
-115.5767215,51.1691941,229,Jasper Way,,,,,,
-115.5765615,51.1692191,227,Jasper Way,,,,,,
-115.5763971,51.1692448,225,Jasper Way,,,,,,
-115.5762328,51.1692694,223,Jasper Way,,,,,,
-115.5760678,51.1692923,221,Jasper Way,,,,,,
-115.5754251,51.1675877,101,Glacier Drive,,,,,,
-115.5755481,51.167682,103,Glacier Drive,,,,,,
-115.5756773,51.1677552,105,Glacier Drive,,,,,,
-115.5757934,51.1678303,107,Glacier Drive,,,,,,
-115.5759144,51.1679026,109,Glacier Drive,,,,,,
-115.5760034,51.1680005,111,Glacier Drive,,,,,,
-115.576041,51.1681075,113,Glacier Drive,,,,,,
-115.5760487,51.1682136,115,Glacier Drive,,,,,,
-115.5760467,51.1683239,201,Jasper Way,,,,,,
-115.5760317,51.1684403,203,Jasper Way,,,,,,
-115.5759655,51.1685408,205,Jasper Way,,,,,,
-115.5758965,51.1686377,207,Jasper Way,,,,,,
-115.5758211,51.1687334,209,Jasper Way,,,,,,
-115.5757413,51.1688293,211,Jasper Way,,,,,,
-115.5756583,51.1689222,213,Jasper Way,,,,,,
-115.5755696,51.1690115,215,Jasper Way,,,,,,
-115.575478,51.1691,217,Jasper Way,,,,,,
-115.5753786,51.1691856,219,Jasper Way,,,,,,
-115.5767355,51.1683234,200,Jasper Way,,,,,,
-115.5766895,51.168434,202,Jasper Way,,,,,,
-115.5766347,51.1685422,204,Jasper Way,,,,,,
-115.5765679,51.1686443,206,Jasper Way,,,,,,
-115.5764951,51.168744,208,Jasper Way,,,,,,
-115.5764013,51.1688627,210,Jasper Way,,,,,,
-115.5768892,51.1687661,212,Jasper Way,,,,,,
-115.5770641,51.1687647,214,Jasper Way,,,,,,
-115.5772332,51.1687836,216,Jasper Way,,,,,,
-115.5774164,51.168813,218,Jasper Way,,,,,,
-115.5770636,51.1684632,117,Glacier Drive,,,,,,
-115.5772197,51.1684992,119,Glacier Drive,,,,,,
-115.5773716,51.1685381,121,Glacier Drive,,,,,,
-115.5775374,51.1685887,123,Glacier Drive,,,,,,
-115.5776763,51.168703,125,Glacier Drive,,,,,,
-115.5778257,51.1687458,127,Glacier Drive,,,,,,
-115.5779186,51.168912,220,Jasper Way,,,,,,
-115.5780726,51.1689459,222,Jasper Way,,,,,,
-115.5576204,51.1835794,540,Deer Street,,,,,,
-115.5620185,51.1888592,141,Eagle Crescent,,,,,,
-115.5721096,51.175782,122,Bear Street,,,,,,
-115.5791475,51.1696515,257,Jasper Way,,,,,,
-115.5793096,51.169668,259,Jasper Way,,,,,,
-115.5794667,51.1696601,261,Jasper Way,,,,,,
-115.5796306,51.169688,263,Jasper Way,,,,,,
-115.5797941,51.1697151,265,Jasper Way,,,,,,
-115.5799598,51.1697364,267,Jasper Way,,,,,,
-115.5801271,51.1697518,269,Jasper Way,,,,,,
-115.5802953,51.1697617,271,Jasper Way,,,,,,
-115.5794571,51.1691802,228,Jasper Way,,,,,,
-115.5796085,51.16923,230,Jasper Way,,,,,,
-115.5797363,51.1692808,232,Jasper Way,,,,,,
-115.579874,51.1693109,234,Jasper Way,,,,,,
-115.5800145,51.1693314,236,Jasper Way,,,,,,
-115.5801571,51.1693466,238,Jasper Way,,,,,,
-115.5775101,51.1670675,1,Sulphur Court,,,,,,
-115.5774144,51.1670062,2,Sulphur Court,,,,,,
-115.5773189,51.1669447,3,Sulphur Court,,,,,,
-115.5772207,51.1668858,4,Sulphur Court,,,,,,
-115.5769484,51.1668721,5,Sulphur Court,,,,,,
-115.5768118,51.1668984,6,Sulphur Court,,,,,,
-115.5766296,51.1672144,7,Sulphur Court,,,,,,
-115.5767171,51.1673502,8,Sulphur Court,,,,,,
-115.5768688,51.1673794,9,Sulphur Court,,,,,,
-115.5769963,51.16741,10,Sulphur Court,,,,,,
-115.5771448,51.167421,11,Sulphur Court,,,,,,
-115.577256,51.1674668,12,Sulphur Court,,,,,,
-115.5773846,51.1674964,13,Sulphur Court,,,,,,
-115.5776851,51.1676382,15,Sulphur Court,,,,,,
-115.5777796,51.1676707,16,Sulphur Court,,,,,,
-115.5778819,51.1675513,17,Sulphur Court,,,,,,
-115.5782011,51.1675644,18,Sulphur Court,,,,,,
-115.5782101,51.1674946,19,Sulphur Court,,,,,,
-115.5782047,51.1674403,20,Sulphur Court,,,,,,
-115.5781807,51.1673746,21,Sulphur Court,,,,,,
-115.5780112,51.1673034,22,Sulphur Court,,,,,,
-115.5779087,51.1672755,23,Sulphur Court,,,,,,
-115.5778206,51.1672368,24,Sulphur Court,,,,,,
-115.5784942,51.1675963,101,Middle Springs Drive,,,,,,
-115.5785604,51.1676659,103,Middle Springs Drive,,,,,,
-115.5786395,51.1677117,105,Middle Springs Drive,,,,,,
-115.578751,51.1677445,107,Middle Springs Drive,,,,,,
-115.5788933,51.1677654,109,Middle Springs Drive,,,,,,
-115.5790324,51.1677758,111,Middle Springs Drive,,,,,,
-115.579168,51.1677757,113,Middle Springs Drive,,,,,,
-115.5793096,51.1677841,115,Middle Springs Drive,,,,,,
-115.5798677,51.1677558,201,Middle Springs Drive,,,,,,
-115.5799756,51.1678096,203,Middle Springs Drive,,,,,,
-115.5800643,51.1678475,205,Middle Springs Drive,,,,,,
-115.5801908,51.1678767,207,Middle Springs Drive,,,,,,
-115.5804542,51.1679813,209,Middle Springs Drive,,,,,,
-115.5806222,51.1680295,211,Middle Springs Drive,,,,,,
-115.5807258,51.1680261,213,Middle Springs Drive,,,,,,
-115.5810168,51.1678929,217,Middle Springs Drive,,,,,,
-115.581811,51.1685187,1,Fairholme Place,,,,,,
-115.5817229,51.1686152,2,Fairholme Place,,,,,,
-115.5815906,51.1687081,3,Fairholme Place,,,,,,
-115.5814118,51.1687527,4,Fairholme Place,,,,,,
-115.5812151,51.168762,5,Fairholme Place,,,,,,
-115.5810432,51.1687769,6,Fairholme Place,,,,,,
-115.5808715,51.1687917,7,Fairholme Place,,,,,,
-115.580699,51.1688066,8,Fairholme Place,,,,,,
-115.5805216,51.1688219,9,Fairholme Place,,,,,,
-115.5803367,51.1688304,10,Fairholme Place,,,,,,
-115.5801756,51.1687986,11,Fairholme Place,,,,,,
-115.580017,51.1687615,12,Fairholme Place,,,,,,
-115.579858,51.1687244,13,Fairholme Place,,,,,,
-115.5794252,51.1687056,14,Fairholme Place,,,,,,
-115.5793301,51.1685749,15,Fairholme Place,,,,,,
-115.5793489,51.1684318,16,Fairholme Place,,,,,,
-115.5797833,51.1683781,17,Fairholme Place,,,,,,
-115.5799648,51.1683844,18,Fairholme Place,,,,,,
-115.5801168,51.1684028,19,Fairholme Place,,,,,,
-115.5802673,51.1684672,20,Fairholme Place,,,,,,
-115.5804217,51.1684868,21,Fairholme Place,,,,,,
-115.5805788,51.1684852,22,Fairholme Place,,,,,,
-115.5807368,51.1684823,23,Fairholme Place,,,,,,
-115.5808989,51.1684703,24,Fairholme Place,,,,,,
-115.5811835,51.1684804,25,Fairholme Place,,,,,,
-115.5812824,51.168402,26,Fairholme Place,,,,,,
-115.5813436,51.1683515,27,Fairholme Place,,,,,,
-115.5813924,51.1683061,28,Fairholme Place,,,,,,
-115.5814487,51.1682536,29,Fairholme Place,,,,,,
-115.5815607,51.1681494,30,Fairholme Place,,,,,,
-115.5816171,51.1680969,31,Fairholme Place,,,,,,
-115.5816659,51.1680514,32,Fairholme Place,,,,,,
-115.5774923,51.1675455,33,Fairholme Place,,,,,,
-115.5823938,51.1677672,1,Sundance Court,,,,,,
-115.5824342,51.1676876,2,Sundance Court,,,,,,
-115.5824414,51.1676104,3,Sundance Court,,,,,,
-115.5823657,51.1673853,5,Sundance Court,,,,,,
-115.5823197,51.1673256,6,Sundance Court,,,,,,
-115.5822279,51.167293,7,Sundance Court,,,,,,
-115.5818201,51.1675797,21,Sundance Court,,,,,,
-115.5818384,51.1675172,20,Sundance Court,,,,,,
-115.5815899,51.1675736,19,Sundance Court,,,,,,
-115.5814848,51.1675601,18,Sundance Court,,,,,,
-115.5813798,51.1675467,17,Sundance Court,,,,,,
-115.5812537,51.1675306,16,Sundance Court,,,,,,
-115.5811486,51.1675172,15,Sundance Court,,,,,,
-115.5810559,51.1675072,14,Sundance Court,,,,,,
-115.5808867,51.167493,13,Sundance Court,,,,,,
-115.5807885,51.1674877,12,Sundance Court,,,,,,
-115.5806521,51.1674888,11,Sundance Court,,,,,,
-115.5800758,51.1674579,10,Sundance Court,,,,,,
-115.5800323,51.1673854,9,Sundance Court,,,,,,
-115.580025,51.1673181,8,Sundance Court,,,,,,
-115.5829042,51.1680715,301,Middle Springs Drive,,,,,,
-115.5830293,51.1680527,303,Middle Springs Drive,,,,,,
-115.5831558,51.1680362,305,Middle Springs Drive,,,,,,
-115.5833168,51.1680268,307,Middle Springs Drive,,,,,,
-115.583463,51.1680301,309,Middle Springs Drive,,,,,,
-115.5835936,51.168034,311,Middle Springs Drive,,,,,,
-115.5837237,51.168038,313,Middle Springs Drive,,,,,,
-115.5838733,51.1680392,315,Middle Springs Drive,,,,,,
-115.5840349,51.168028,317,Middle Springs Drive,,,,,,
-115.584182,51.1680079,319,Middle Springs Drive,,,,,,
-115.5843197,51.1679855,321,Middle Springs Drive,,,,,,
-115.5844463,51.1679649,323,Middle Springs Drive,,,,,,
-115.584573,51.1679443,325,Middle Springs Drive,,,,,,
-115.5846996,51.1679237,327,Middle Springs Drive,,,,,,
-115.584886,51.1679264,329,Middle Springs Drive,,,,,,
-115.5850229,51.1678437,331,Middle Springs Drive,,,,,,
-115.5850786,51.1677093,333,Middle Springs Drive,,,,,,
-115.5850966,51.167572,335,Middle Springs Drive,,,,,,
-115.584975,51.1674258,334,Middle Springs Drive,,,,,,
-115.5848045,51.1673928,332,Middle Springs Drive,,,,,,
-115.584565,51.1674211,330,Middle Springs Drive,,,,,,
-115.5844348,51.1674728,328,Middle Springs Drive,,,,,,
-115.5843307,51.1675517,326,Middle Springs Drive,,,,,,
-115.5842223,51.1675892,324,Middle Springs Drive,,,,,,
-115.5841045,51.1676118,322,Middle Springs Drive,,,,,,
-115.5839866,51.1676306,320,Middle Springs Drive,,,,,,
-115.5838815,51.1676548,318,Middle Springs Drive,,,,,,
-115.5837536,51.1676427,316,Middle Springs Drive,,,,,,
-115.58361,51.1676383,314,Middle Springs Drive,,,,,,
-115.5834772,51.1676342,312,Middle Springs Drive,,,,,,
-115.5833572,51.1676314,310,Middle Springs Drive,,,,,,
-115.5832169,51.167634,308,Middle Springs Drive,,,,,,
-115.5830824,51.1676428,306,Middle Springs Drive,,,,,,
-115.5848936,51.1676197,335,Middle Springs Drive,,,,,,
-115.5829579,51.1676572,304,Middle Springs Drive,,,,,,
-115.5828285,51.1676763,302,Middle Springs Drive,,,,,,
-115.5827052,51.1676971,300,Middle Springs Drive,,,,,,
-115.573422,51.1747495,101,Bear Street,,,,,,
-115.5736058,51.1755973,125,Lynx Street,,,,,,
-115.5737174,51.1757911,121,Lynx Street,,,,,,
-115.5716839,51.182359,90,Moose Street,,,,,,
-115.5734994,51.1752359,111,Bear Street,,,,,,
-115.5734621,51.1720956,103,Birch Avenue,,,,,,
-115.5590201,51.1613693,0,Spray Avenue,,,,,,
-115.5646342,51.1854541,0,Whiskey Jack Crescent,,,,,,
-115.5631762,51.1851279,0,Whiskey Jack Crescent,,,,,,
-115.5693485,51.1792255,330,Banff Avenue,,,,,,
-115.5726344,51.1813179,325,Squirrel Street,,,,,,
-115.5764368,51.1790251,301,Lynx Street,,,,,,
-115.5593316,51.1900443,103,Falcon Street,,,,,,
-115.5751045,51.1721157,100,Birch Drive,,,,,,
-115.5768752,51.1718927,102,Birch Drive,,,,,,
-115.570754,51.1811372,343,Marten Street,,,,,,
-115.5708572,51.1810206,343,Marten Street,,,,,,
-115.5709975,51.1811558,343,Marten Street,,,,,,
-115.5704966,51.181353,347,Marten Street,,,,,,
-115.5707163,51.1812877,347,Marten Street,,,,,,
-115.5804665,51.1693523,240,Jasper Way,,,,,,
-115.5806095,51.1693322,242,Jasper Way,,,,,,
-115.5807409,51.169309,244,Jasper Way,,,,,,
-115.5808725,51.1692789,246,Jasper Way,,,,,,
-115.5810301,51.1692566,248,Jasper Way,,,,,,
-115.581211,51.1692365,250,Jasper Way,,,,,,
-115.5813302,51.1692971,252,Jasper Way,,,,,,
-115.581417,51.1693922,254,Jasper Way,,,,,,
-115.5814607,51.1694936,256,Jasper Way,,,,,,
-115.5814697,51.1695897,258,Jasper Way,,,,,,
-115.5684257,51.1744997,410,Buffalo Street,,,,,,
-115.5690539,51.174917,110,Beaver Street,,,,,,
-115.5690077,51.1756845,124,Beaver Street,,,,,,
-115.5689779,51.1755836,124,Beaver Street,,,,,,
-115.5689787,51.1762776,136,Beaver Street,,,,,,
-115.5689416,51.1760667,136,Beaver Street,,,,,,
-115.5682991,51.1756045,123,Muskrat Street,,,,,,
-115.5682849,51.1753284,119,Muskrat Street,,,,,,
-115.570551,51.1746014,302,Buffalo Street,,,,,,
-115.5690921,51.1745749,400,Buffalo Street,,,,,,
-115.5702395,51.1782006,228,Banff Avenue,,,,,,
-115.5742883,51.1793953,305,Squirrel Street,,,,,,
-115.5635331,51.1841041,459,Cougar Street,,,,,,
-115.5639818,51.1839549,455,Cougar Street,,,,,,
-115.5674831,51.1757977,128,Muskrat Street,,,,,,
-115.5684757,51.1662,143,Kootenay Avenue,,,,,,
-115.5698349,51.1753278,117,Beaver Street,,,,,,
-115.5698442,51.1752186,115,Beaver Street,,,,,,
-115.569863,51.1749992,111,Beaver Street,,,,,,
-115.5579708,51.1893199,118,Eagle Crescent,,,,,,
-115.5588132,51.1891286,124,Eagle Crescent,,,,,,
-115.5596554,51.1889375,130,Eagle Crescent,,,,,,
-115.5600058,51.1888578,132,Eagle Crescent,,,,,,
-115.5602863,51.1887941,134,Eagle Crescent,,,,,,
-115.5605677,51.1887303,136,Eagle Crescent,,,,,,
-115.5608488,51.1886666,138,Eagle Crescent,,,,,,
-115.5662608,51.1834192,436,Cougar Street,,,,,,
-115.5716054,51.1691703,116,Park Avenue,,,,,,
-115.5711402,51.1687766,121,Rainbow Avenue,,,,,,
-115.5833984,51.1704965,155,Cave Avenue,,,,,,
-115.581522,51.1709161,143,Cave Avenue,,,,,,
-115.5711168,51.1825292,409,Squirrel Street,,,,,,
-115.5709684,51.1826786,413,Squirrel Street,,,,,,
-115.5704303,51.1831411,421,Squirrel Street,,,,,,
-115.5745025,51.1806123,321,Big Horn Street,,,,,,
-115.5687054,51.1677302,130,Kootenay Avenue,,,,,,
-115.5782337,51.1709102,127,Cave Avenue,,,,,,
-115.5798626,51.1708846,135,Cave Avenue,,,,,,
-115.5812054,51.1709339,141,Cave Avenue,,,,,,
-115.5818332,51.1708905,145,Cave Avenue,,,,,,
-115.5821448,51.1708524,147,Cave Avenue,,,,,,
-115.5824563,51.1707985,149,Cave Avenue,,,,,,
-115.5827675,51.1707262,151,Cave Avenue,,,,,,
-115.5830788,51.1706293,153,Cave Avenue,,,,,,
-115.5847464,51.1702592,161,Cave Avenue,,,,,,
-115.5667368,51.1768148,205,Otter Street,,,,,,
-115.5744918,51.1686176,134,Park Avenue,,,,,,
-115.5702934,51.1815742,401,Marten Street,,,,,,
-115.5654938,51.1838601,441,Cougar Street,,,,,,
-115.5640415,51.1753936,122,Grizzly Street,,,,,,
-115.5697432,51.1739895,309,Buffalo Street,,,,,,
-115.5700705,51.173988,305,Buffalo Street,,,,,,
-115.569416,51.1739871,313,Buffalo Street,,,,,,
-115.5756255,51.1707716,113,Cave Avenue,,,,,,
-115.5723512,51.1706625,101,Mountain Avenue,,,,,,
-115.5764389,51.180705,335,Lynx Street,,,,,,
-115.5605949,51.1912785,216,Hawk Avenue,,,,,,
-115.5716581,51.1739291,95,Banff Avenue,,,,,,
-115.572206,51.1746811,200,Buffalo Street,,,,,,
-115.5702408,51.1775964,218,Banff Avenue,,,,,,
-115.570288,51.1777081,220,Banff Avenue,,,,,,
-115.5702599,51.1779817,224,Banff Avenue,,,,,,
-115.5727641,51.1799586,322,Squirrel Street,,,,,,
-115.5717607,51.1802429,329,Marten Street,,,,,,
-115.5597523,51.1833853,521,Deer Street,,,,,,
-115.5572543,51.1846819,546548,Banff Avenue,,,,,,
-115.5565623,51.1844463,553,Marmot Street,,,,,,
-115.557044,51.1842866,547,Deer Street,,,,,,
-115.5574294,51.1841581,543,Deer Street,,,,,,
-115.5576236,51.1840951,541,Deer Street,,,,,,
-115.5578167,51.1840319,539,Deer Street,,,,,,
-115.5623441,51.1630048,0,,,,,,,
-115.5643192,51.1657451,0,,,,,,,
-115.5685305,51.166449,0,,,,,,,
-115.5800776,51.1708889,0,,,,,,,
-115.570222,51.1778158,0,,,,,,,
-115.5580307,51.1840147,537,Deer Street,,,,,,
-115.5584211,51.1839686,535,Deer Street,,,,,,
-115.5566631,51.1867414,242,Marmot Crescent,,,,,,
-115.5567554,51.1868513,240,Marmot Crescent,,,,,,
-115.5727257,51.1770208,205,Bear Street,,,,,,
-115.5729894,51.1770298,205,Bear Street,,,,,,
-115.572572,51.1770034,205,Bear Street,,,,,,
-115.5735411,51.1780927,226,Lynx Street,,,,,,
-115.5734854,51.1779261,222,Lynx Street,,,,,,
-115.568852,51.1771084,210,Beaver Street,,,,,,
-115.5688424,51.177218,212,Beaver Street,,,,,,
-115.5681026,51.1780641,404,Wolf Street,,,,,,
-115.5680783,51.1777428,223,Muskrat Street,,,,,,
-115.5673716,51.1770578,210,Muskrat Street,,,,,,
-115.5720733,51.1761996,136,Bear Street,,,,,,
-115.5600555,51.1655681,0,,,,,,,
-115.5823412,51.1682864,0,Middle Springs Drive,,,,,,
-115.5698977,51.1746021,300,Buffalo Street,,,,,,
-115.5719568,51.1775441,216,Bear Street,,,,,,
-115.5719663,51.1774342,214,Bear Street,,,,,,
-115.571976,51.1773243,212,Bear Street,,,,,,
-115.5696411,51.1775755,217,Beaver Street,,,,,,
-115.5696524,51.1774655,215,Beaver Street,,,,,,
-115.5696696,51.1772462,211,Beaver Street,,,,,,
-115.569702,51.1768622,201,Beaver Street,,,,,,
-115.5696786,51.1771366,209,Beaver Street,,,,,,
-115.5601223,51.1826613,514,Deer Street,,,,,,
-115.5646496,51.1838243,449,Cougar Street,,,,,,
-115.564872,51.1838139,447,Cougar Street,,,,,,
-115.5611301,51.1886025,140,Eagle Crescent,,,,,,
-115.5614106,51.1885385,142,Eagle Crescent,,,,,,
-115.5616913,51.1884749,144,Eagle Crescent,,,,,,
-115.5619714,51.1884112,146,Eagle Crescent,,,,,,
-115.5606476,51.1895124,105,Owl Street,,,,,,
-115.5609493,51.189131,135,Eagle Crescent,,,,,,
-115.561262,51.189373,104,Jay Street,,,,,,
-115.5585149,51.1900335,104,Falcon Street,,,,,,
-115.5586258,51.1902265,102,Falcon Street,,,,,,
-115.558737,51.1904197,100,Falcon Street,,,,,,
-115.580721,51.170926,139,Cave Avenue,,,,,,
-115.5809389,51.1709354,139,Cave Avenue,,,,,,
-115.5728938,51.1738804,201,Buffalo Street,,,,,,
-115.5702758,51.1785383,302,Banff Avenue,,,,,,
-115.5598279,51.1896987,104,Owl Street,,,,,,
-115.569759,51.1762044,137,Beaver Street,,,,,,
-115.5755386,51.1783473,301,Wolf Street,,,,,,
-115.576924,51.1780339,229,Bow Avenue,,,,,,
-115.5727526,51.1779005,221,Bear Street,,,,,,
-115.5622012,51.1883589,148,Eagle Crescent,,,,,,
-115.5595151,51.1894568,127,Eagle Crescent,,,,,,
-115.5721573,51.1752354,110,Bear Street,,,,,,
-115.5686256,51.1784924,0,Wolf Street,,,,,,
-115.5785627,51.1832943,100,Norquay Road,,,,,,
-115.5675537,51.1733362,0,Bow Avenue,,,,,,
-115.56357,51.1898237,300,Hawk Avenue,,,,,,
-115.5777779,51.1726665,101,Birch Drive,,,,,,
-115.5568704,51.1848093,552,Banff Avenue,,,,,,
-115.5581048,51.1901267,105,Eagle Crescent,,,,,,
-115.5707686,51.1792404,325,Banff Avenue,,,,,,
-115.564845,51.1741481,604,Buffalo Street,,,,,,
-115.5654792,51.1737424,606,Buffalo Street,,,,,,
-115.5696308,51.1776847,219,Beaver Street,,,,,,
-115.5696615,51.1773557,213,Beaver Street,,,,,,
-115.5749574,51.1690484,0,Park Avenue,,,,,,
-115.573056,51.1821817,349,Big Horn Street,,,,,,
-115.5719474,51.1776538,218,Bear Street,,,,,,
-115.5726048,51.1794124,317,Marten Street,,,,,,
-115.5724684,51.1795269,319,Marten Street,,,,,,
-115.5654463,51.1793607,349,Otter Street,,,,,,
-115.5655635,51.1792452,347,Otter Street,,,,,,
-115.569693,51.1814384,402,Marten Street,,,,,,
-115.5693796,51.1814257,404,Marten Street,,,,,,
-115.5702456,51.1816851,401,Marten Street,,,,,,
-115.5699848,51.1819993,407,Marten Street,,,,,,
-115.5698871,51.1821257,409,Marten Street,,,,,,
-115.5696621,51.1823698,413,Marten Street,,,,,,
-115.569794,51.182931,420,Squirrel Street,,,,,,
-115.5699005,51.1828101,420,Squirrel Street,,,,,,
-115.5701854,51.1825813,412,Squirrel Street,,,,,,
-115.5705076,51.1823618,410,Squirrel Street,,,,,,
-115.5704299,51.1823284,410,Squirrel Street,,,,,,
-115.5703552,51.1823034,410,Squirrel Street,,,,,,
-115.5702757,51.1822715,410,Squirrel Street,,,,,,
-115.5706861,51.1820471,404,Squirrel Street,,,,,,
-115.5684228,51.1829412,425,Marten Street,,,,,,
-115.5672438,51.1830297,435,Marten Street,,,,,,
-115.5654553,51.1833456,444,Cougar Street,,,,,,
-115.5675934,51.1835097,422,Cougar Street,,,,,,
-115.5675725,51.1833318,422,Cougar Street,,,,,,
-115.5678932,51.1833946,420,Cougar Street,,,,,,
-115.5685334,51.1834318,414,Cougar Street,,,,,,
-115.567365,51.1824765,428,Marten Street,,,,,,
-115.5683718,51.1823448,416,Marten Street,,,,,,
-115.5681612,51.1824058,418,Marten Street,,,,,,
-115.567919,51.1824558,418,Marten Street,,,,,,
-115.5677897,51.1823366,420,Marten Street,,,,,,
-115.568013,51.1822623,418,Marten Street,,,,,,
-115.5682363,51.1821875,416,Marten Street,,,,,,
-115.5686708,51.1823004,200,Rabbit Street,,,,,,
-115.568624,51.182245,200,Rabbit Street,,,,,,
-115.5685773,51.1821895,200,Rabbit Street,,,,,,
-115.5685192,51.1821206,200,Rabbit Street,,,,,,
-115.5684725,51.1820653,200,Rabbit Street,,,,,,
-115.5684256,51.1820181,200,Rabbit Street,,,,,,
-115.5663072,51.1812842,417,Beaver Street,,,,,,
-115.5675624,51.180656,337,Moose Street,,,,,,
-115.565302,51.1819276,436,Banff Avenue,,,,,,
-115.5648429,51.1820757,440,Banff Avenue,,,,,,
-115.564394,51.1823198,448,Banff Avenue,,,,,,
-115.5646166,51.180035,409,Otter Street,,,,,,
-115.5649518,51.1803306,412,Muskrat Street,,,,,,
-115.5645466,51.1801697,411,Otter Street,,,,,,
-115.5648065,51.1804349,414,Muskrat Street,,,,,,
-115.5644234,51.1802824,413,Otter Street,,,,,,
-115.5646705,51.1805433,416,Muskrat Street,,,,,,
-115.5642944,51.1803932,415,Otter Street,,,,,,
-115.5643403,51.1808948,422,Muskrat Street,,,,,,
-115.5637536,51.1808259,423,Otter Street,,,,,,
-115.5636276,51.1809393,425,Otter Street,,,,,,
-115.5635284,51.1810616,428,Muskrat Street,,,,,,
-115.5634682,51.1811984,430,Muskrat Street,,,,,,
-115.5633599,51.1813162,432,Muskrat Street,,,,,,
-115.5636769,51.1816012,434,Muskrat Street,,,,,,
-115.5632661,51.1814404,434,Muskrat Street,,,,,,
-115.5635458,51.1817106,436,Muskrat Street,,,,,,
-115.5631527,51.1815566,435,Deer Street,,,,,,
-115.565806,51.1769911,208,Otter Street,,,,,,
-115.5661086,51.174915,100,Wolverine Street,,,,,,
-115.565733,51.1749708,102,Wolverine Street,,,,,,
-115.5660972,51.1750511,116,Otter Street,,,,,,
-115.5647052,51.176103,135,Grizzly Street,,,,,,
-115.5651939,51.1759818,133,Grizzly Street,,,,,,
-115.5652722,51.1749211,115,Grizzly Street,,,,,,
-115.5617014,51.1831105,504,Banff Avenue,,,,,,
-115.5622279,51.1831207,500,Banff Avenue,,,,,,
-115.5621809,51.1830709,500,Banff Avenue,,,,,,
-115.5621415,51.1830188,500,Banff Avenue,,,,,,
-115.5620946,51.1829693,500,Banff Avenue,,,,,,
-115.5593683,51.1835133,527,Deer Street,,,,,,
-115.5588348,51.1836241,533,Deer Street,,,,,,
-115.5580068,51.1833629,536,Deer Street,,,,,,
-115.5628104,51.1764296,200,Saint Julien Road,,,,,,
-115.5614916,51.1895831,100,Jay Street,,,,,,
-115.5598228,51.1893869,129,Eagle Crescent,,,,,,
-115.5753111,51.1834948,0,Cpr R/W Sprt Of Xmas,,,,,,
-115.5742232,51.1758961,134,Bow Avenue,,,,,,
-115.5746611,51.1768452,208,Bow Avenue,,,,,,
-115.5690883,51.1739798,317,Buffalo Street,,,,,,
-115.5687608,51.17397,321,Buffalo Street,,,,,,
-115.5669089,51.1739371,509,Buffalo Street,,,,,,
-115.5654285,51.1722469,549,Buffalo Street,,,,,,
-115.5652821,51.1720628,553,Buffalo Street,,,,,,
-115.5679109,51.1709874,109,Glen Avenue,,,,,,
-115.5679902,51.1710673,107,Glen Avenue,,,,,,
-115.5680608,51.1711508,1,Riverview Court,,,,,,
-115.5681801,51.1712931,15,Riverview Court,,,,,,
-115.5682517,51.1713792,101,Glen Avenue,,,,,,
-115.568404,51.1712642,14,Riverview Court,,,,,,
-115.5684761,51.1712149,13,Riverview Court,,,,,,
-115.5685433,51.1711803,12,Riverview Court,,,,,,
-115.5686325,51.1711583,11,Riverview Court,,,,,,
-115.569075,51.1710866,10,Riverview Court,,,,,,
-115.5690219,51.1710331,9,Riverview Court,,,,,,
-115.568971,51.1709831,8,Riverview Court,,,,,,
-115.5688855,51.170929,7,Riverview Court,,,,,,
-115.5688248,51.1708603,6,Riverview Court,,,,,,
-115.5684948,51.1708112,5,Riverview Court,,,,,,
-115.5683758,51.1708601,4,Riverview Court,,,,,,
-115.5682777,51.1709226,3,Riverview Court,,,,,,
-115.5681659,51.1709682,2,Riverview Court,,,,,,
-115.5680598,51.1703186,114,Spray Avenue,,,,,,
-115.5672229,51.1700678,117,Glen Avenue,,,,,,
-115.5690906,51.1700842,113,Spray Avenue,,,,,,
-115.5688432,51.1697819,115,Spray Avenue,,,,,,
-115.5694452,51.1696341,102,Mountain Lane,,,,,,
-115.5693208,51.1695231,104,Mountain Lane,,,,,,
-115.5672829,51.1679139,1,Cascade Court,,,,,,
-115.5676815,51.1677981,2,Cascade Court,,,,,,
-115.5676987,51.1676014,3,Cascade Court,,,,,,
-115.5673314,51.1674613,4,Cascade Court,,,,,,
-115.5668244,51.1676285,5,Cascade Court,,,,,,
-115.566852,51.1666822,101,Lougheed Circle,,,,,,
-115.5666486,51.1667374,102,Lougheed Circle,,,,,,
-115.5663787,51.1668168,103,Lougheed Circle,,,,,,
-115.5663036,51.16699,104,Lougheed Circle,,,,,,
-115.5662971,51.1671773,105,Lougheed Circle,,,,,,
-115.5664289,51.1673698,106,Lougheed Circle,,,,,,
-115.5666256,51.1674117,107,Lougheed Circle,,,,,,
-115.5669534,51.1672955,108,Lougheed Circle,,,,,,
-115.5671337,51.1672428,109,Lougheed Circle,,,,,,
-115.5673059,51.167145,110,Lougheed Circle,,,,,,
-115.5685102,51.1675814,132,Kootenay Avenue,,,,,,
-115.5683771,51.1674826,132,Kootenay Avenue,,,,,,
-115.5705839,51.1683616,121,Kootenay Avenue,,,,,,
-115.5704472,51.1682369,123,Kootenay Avenue,,,,,,
-115.5703558,51.1681126,123,Kootenay Avenue,,,,,,
-115.5686915,51.1658783,1,Kootenay Close,,,,,,
-115.5686277,51.1656013,2,Kootenay Close,,,,,,
-115.5682066,51.1657013,3,Kootenay Close,,,,,,
-115.5681042,51.1659581,4,Kootenay Close,,,,,,
-115.5741353,51.1713414,109,Cave Avenue,,,,,,
-115.5748545,51.1711839,112,Cave Avenue,,,,,,
-115.5763358,51.1710253,119,Cave Avenue,,,,,,
-115.5764048,51.1710245,119,Cave Avenue,,,,,,
-115.5765637,51.171023,119,Cave Avenue,,,,,,
-115.5766331,51.171023,119,Cave Avenue,,,,,,
-115.5763338,51.1707524,119,Cave Avenue,,,,,,
-115.5764151,51.1707522,119,Cave Avenue,,,,,,
-115.5765355,51.1707157,119,Cave Avenue,,,,,,
-115.5766169,51.1707157,119,Cave Avenue,,,,,,
-115.5774946,51.1706212,123,Cave Avenue,,,,,,
-115.577368,51.1706197,123,Cave Avenue,,,,,,
-115.5772223,51.1706181,123,Cave Avenue,,,,,,
-115.5772408,51.170767,123,Cave Avenue,,,,,,
-115.5772418,51.1708349,123,Cave Avenue,,,,,,
-115.5772426,51.1709001,123,Cave Avenue,,,,,,
-115.5772091,51.1710837,123,Cave Avenue,,,,,,
-115.5773309,51.1710861,123,Cave Avenue,,,,,,
-115.5774449,51.171089,123,Cave Avenue,,,,,,
-115.5777301,51.1710689,125,Cave Avenue,,,,,,
-115.5778321,51.1710732,125,Cave Avenue,,,,,,
-115.5779401,51.1710867,125,Cave Avenue,,,,,,
-115.5777366,51.170877,125,Cave Avenue,,,,,,
-115.5778291,51.1708886,125,Cave Avenue,,,,,,
-115.5779335,51.1708994,125,Cave Avenue,,,,,,
-115.5776458,51.1706702,125,Cave Avenue,,,,,,
-115.5777385,51.1706398,125,Cave Avenue,,,,,,
-115.5778282,51.1706423,125,Cave Avenue,,,,,,
-115.5779241,51.170708,125,Cave Avenue,,,,,,
-115.5802919,51.1708974,136,Cave Avenue,,,,,,
-115.5836351,51.1706774,153,Cave Avenue,,,,,,
-115.5837118,51.170677,153,Cave Avenue,,,,,,
-115.5838752,51.1706397,153,Cave Avenue,,,,,,
-115.5839521,51.1706396,153,Cave Avenue,,,,,,
-115.5836392,51.1704168,153,Cave Avenue,,,,,,
-115.5837294,51.1704167,153,Cave Avenue,,,,,,
-115.5838561,51.1703793,153,Cave Avenue,,,,,,
-115.5839462,51.1703791,153,Cave Avenue,,,,,,
-115.5589083,51.1895946,125,Eagle Crescent,,,,,,
-115.5754215,51.1679986,141,Park Avenue,,,,,,
-115.5582516,51.1892562,120,Eagle Crescent,,,,,,
-115.5585324,51.1891925,122,Eagle Crescent,,,,,,
-115.563079,51.1891037,158,Eagle Crescent,,,,,,
-115.5633826,51.1880598,150,Eagle Cres(Rear),,,,,,
-115.5739221,51.1823408,0,Cpr Right Of Way,,,,,,
-115.5748371,51.1831137,0,Cpr Right Of Way,,,,,,
-115.5606894,51.1721345,100,Saint Julien Road,,,,,,
-115.5622377,51.1744675,0,Saint Julien Road,,,,,,
-115.56038,51.1746351,0,Saint Julien Road,,,,,,
-115.5663958,51.16639,200,Springs Crescent,,,,,,
-115.5663472,51.1662043,202,Springs Crescent,,,,,,
-115.5662929,51.1660647,204,Springs Crescent,,,,,,
-115.5662287,51.1659289,206,Springs Crescent,,,,,,
-115.5661518,51.165798,208,Springs Crescent,,,,,,
-115.5660612,51.1656723,210,Springs Crescent,,,,,,
-115.5659573,51.1655517,212,Springs Crescent,,,,,,
-115.5657525,51.1654585,214,Springs Crescent,,,,,,
-115.5656585,51.1652877,216,Springs Crescent,,,,,,
-115.5658301,51.165136,218,Springs Crescent,,,,,,
-115.5660595,51.1650738,220,Springs Crescent,,,,,,
-115.5662049,51.1649554,221,Springs Crescent,,,,,,
-115.5665195,51.1649085,219,Springs Crescent,,,,,,
-115.5666959,51.1650015,217,Springs Crescent,,,,,,
-115.566806,51.1651633,215,Springs Crescent,,,,,,
-115.5668745,51.1653108,213,Springs Crescent,,,,,,
-115.5669846,51.1654349,211,Springs Crescent,,,,,,
-115.5670784,51.1655627,209,Springs Crescent,,,,,,
-115.5672157,51.1656682,207,Springs Crescent,,,,,,
-115.5673482,51.1658119,205,Springs Crescent,,,,,,
-115.5673165,51.1660195,203,Springs Crescent,,,,,,
-115.5671003,51.1661122,201,Springs Crescent,,,,,,
-115.5582716,51.1904159,101,Eagle Crescent,,,,,,
-115.575239,51.1711633,113,Cave Avenue,,,,,,
-115.5755766,51.1710909,113,Cave Avenue,,,,,,
-115.5751936,51.1709667,113,Cave Avenue,,,,,,
-115.5755286,51.1708581,113,Cave Avenue,,,,,,
-115.5578485,51.1834149,538,Deer Street,,,,,,
-115.5577415,51.1834969,538,Deer Street,,,,,,
-115.5567199,51.1838209,1,Antelope Lane,,,,,,
-115.5565868,51.1838374,2,Antelope Lane,,,,,,
-115.5564685,51.1838716,3,Antelope Lane,,,,,,
-115.5563288,51.1839336,4,Antelope Lane,,,,,,
-115.556213,51.1839757,5,Antelope Lane,,,,,,
-115.5561122,51.1840258,6,Antelope Lane,,,,,,
-115.5558364,51.1841405,7,Antelope Lane,,,,,,
-115.5557115,51.1841504,8,Antelope Lane,,,,,,
-115.5555777,51.1841627,9,Antelope Lane,,,,,,
-115.5554311,51.1842249,10,Antelope Lane,,,,,,
-115.5553259,51.1842304,11,Antelope Lane,,,,,,
-115.5552131,51.184324,12,Antelope Lane,,,,,,
-115.5550361,51.1843784,13,Antelope Lane,,,,,,
-115.5549593,51.1844444,14,Antelope Lane,,,,,,
-115.554876,51.1845006,15,Antelope Lane,,,,,,
-115.554102,51.1846771,16,Antelope Lane,,,,,,
-115.5541394,51.1845876,17,Antelope Lane,,,,,,
-115.5541907,51.1845022,18,Antelope Lane,,,,,,
-115.5542635,51.18442,19,Antelope Lane,,,,,,
-115.5538214,51.1838996,5,Otter Lane,,,,,,
-115.5544207,51.1842814,21,Antelope Lane,,,,,,
-115.5544805,51.1842155,22,Antelope Lane,,,,,,
-115.5545811,51.184135,23,Antelope Lane,,,,,,
-115.5546304,51.1840664,24,Antelope Lane,,,,,,
-115.5546519,51.1839853,25,Antelope Lane,,,,,,
-115.554601,51.1837818,26,Antelope Lane,,,,,,
-115.5547221,51.1837546,27,Antelope Lane,,,,,,
-115.5548422,51.1837276,28,Antelope Lane,,,,,,
-115.5550324,51.1838175,29,Antelope Lane,,,,,,
-115.5551412,51.1838368,30,Antelope Lane,,,,,,
-115.555257,51.1838571,31,Antelope Lane,,,,,,
-115.5554599,51.1838632,32,Antelope Lane,,,,,,
-115.5555627,51.1838454,33,Antelope Lane,,,,,,
-115.5556835,51.1838226,34,Antelope Lane,,,,,,
-115.5558243,51.183782,35,Antelope Lane,,,,,,
-115.5559212,51.1837255,36,Antelope Lane,,,,,,
-115.5560243,51.1836838,37,Antelope Lane,,,,,,
-115.5540452,51.1841594,4,Otter Lane,,,,,,
-115.5538215,51.1843265,3,Otter Lane,,,,,,
-115.5529816,51.1843948,1,Otter Lane,,,,,,
-115.5533661,51.1845615,2,Otter Lane,,,,,,
-115.5531329,51.184067,7,Otter Lane,,,,,,
-115.5535192,51.1840467,6,Otter Lane,,,,,,
-115.5533126,51.1840404,0,Tatanga Common Property,,,,,,
-115.5760483,51.1710403,117,Cave Avenue,,,,,,
-115.5760502,51.170832,117,Cave Avenue,,,,,,
-115.5619855,51.1831096,502,Banff Avenue,,,,,,
-115.5644036,51.1845965,0,Whiskey Jack Crescent,,,,,,
-115.5643632,51.1845479,0,Whiskey Jack Crescent,,,,,,
-115.5643227,51.1844994,0,Whiskey Jack Crescent,,,,,,
-115.5643015,51.1844445,0,Whiskey Jack Crescent,,,,,,
-115.5642611,51.184396,0,Whiskey Jack Crescent,,,,,,
-115.5648219,51.1843856,0,Whiskey Jack Crescent,,,,,,
-115.5648988,51.1843598,0,Whiskey Jack Crescent,,,,,,
-115.564986,51.1843461,0,Whiskey Jack Crescent,,,,,,
-115.5650629,51.1843204,0,Whiskey Jack Crescent,,,,,,
-115.5653137,51.1844427,0,Whiskey Jack Crescent,,,,,,
-115.5653565,51.1844904,0,Whiskey Jack Crescent,,,,,,
-115.5654182,51.1845315,0,Whiskey Jack Crescent,,,,,,
-115.565461,51.1845792,0,Whiskey Jack Crescent,,,,,,
-115.5655038,51.1846269,0,Whiskey Jack Crescent,,,,,,
-115.5655466,51.1846747,0,Whiskey Jack Crescent,,,,,,
-115.5655704,51.1847291,0,Whiskey Jack Crescent,,,,,,
-115.5656132,51.1847769,0,Whiskey Jack Crescent,,,,,,
-115.5660462,51.1847307,0,Whiskey Jack Crescent,,,,,,
-115.5660852,51.1847797,0,Whiskey Jack Crescent,,,,,,
-115.5661047,51.1848348,0,Whiskey Jack Crescent,,,,,,
-115.5661437,51.1848839,0,Whiskey Jack Crescent,,,,,,
-115.5661826,51.1849329,0,Whiskey Jack Crescent,,,,,,
-115.5662216,51.1849819,0,Whiskey Jack Crescent,,,,,,
-115.566241,51.185037,0,Whiskey Jack Crescent,,,,,,
-115.56628,51.1850861,0,Whiskey Jack Crescent,,,,,,
-115.5655555,51.1853538,0,Whiskey Jack Crescent,,,,,,
-115.565511,51.1853067,0,Whiskey Jack Crescent,,,,,,
-115.5654477,51.1852665,0,Whiskey Jack Crescent,,,,,,
-115.5654032,51.1852194,0,Whiskey Jack Crescent,,,,,,
-115.5653774,51.1851653,0,Whiskey Jack Crescent,,,,,,
-115.5649319,51.1851436,0,Whiskey Jack Crescent,,,,,,
-115.5648876,51.1850964,0,Whiskey Jack Crescent,,,,,,
-115.5648433,51.1850492,0,Whiskey Jack Crescent,,,,,,
-115.5648177,51.1849951,0,Whiskey Jack Crescent,,,,,,
-115.5647734,51.1849479,0,Whiskey Jack Crescent,,,,,,
-115.5647478,51.1848937,0,Whiskey Jack Crescent,,,,,,
-115.5647035,51.1848465,0,Whiskey Jack Crescent,,,,,,
-115.5646592,51.1847993,0,Whiskey Jack Crescent,,,,,,
-115.5842762,51.1702809,159,Cave Avenue,,,,,,
-115.5562793,51.1724608,0,,,,,,,
-115.5818109,51.1676666,22,Sundance Court,,,,,,
-115.5728006,51.1773529,211,Bear Street,,,,,,
-115.568226,51.1767564,201,Muskrat Street,,,,,,
-115.5549528,51.1852824,600,Banff Avenue,,,,,,
-115.5698391,51.1807763,345,Banff Avenue,,,,,,
-115.5703034,51.180313,337,Banff Avenue,,,,,,
-115.5725257,51.1683474,0,Rainbow Park,,,,,,
-115.5808205,51.1679948,215,Middle Springs Drive,,,,,,
-115.5622294,51.1701622,0,,,,,,,
-115.5750718,51.1845957,0,,,,,,,
-115.5640497,51.1768486,206,Grizzly Street,,,,,,
-115.5721858,51.1687898,127,Rainbow Avenue,,,,,,
-115.568931,51.1679491,128,Kootenay Avenue,,,,,,
-115.5683166,51.1827677,0,,,,,,,
-115.5750504,51.1817688,0,,,,,,,
-115.571652,51.1830165,0,,,,,,,
-115.5529754,51.1843068,0,,,,,,,
-115.5538157,51.1838116,0,,,,,,,
-115.5539341,51.1841042,0,,,,,,,
-115.5533752,51.1844498,0,,,,,,,
-115.5776198,51.1669181,0,,,,,,,
-115.5637373,51.1846652,0,,,,,,,
-115.5516469,51.1862969,0,,,,,,,
-115.5738347,51.1825792,343,Cpr R/W Petrocan,,,,,,
-115.5582261,51.1923406,160,Hawk Avenue,,,,,,
-115.5554215,51.1912651,100,Hawk Avenue,,,,,,
-115.5557165,51.1921443,120,Hawk Avenue,,,,,,
-115.5564742,51.1917033,136,Hawk Avenue,,,,,,
-115.5577594,51.1919463,150,Hawk Avenue,,,,,,
-115.5562198,51.1914316,140,Hawk Avenue,,,,,,
